Name,Category,Website,Address,Suburb,Postcode,Telephone Phone,Latitude,Longitude
A J's Sports Centre,Health and Fitness,http://www.ajsportscentre.com.au,43 Endiandra St,ALGESTER,4115,(07) 3273 2978,-27.617841,153.033525
Aboriginal Centre for the Performing Arts,Theatre and Arts,http://www.acpa.edu.au/,U 1 27 Cordelia St,SOUTH BRISBANE,4101,(07) 3846 7211,-27.475177,153.014869
Active Health Club - Edge Hill,Health and Fitness,http://www.activehealthclubs.com.au,159 Pease St,EDGE HILL,4870,(07) 4053 8600,-16.91182,145.740478
Active Living The Wellness Company,Sport and Recreation,(blank),1/34 Sixth Avenue,MAROOCHYDORE,4557,(07) 5479 1212,-26.657136,153.102322
Agility Physiotherapy and Pilates,Health and Fitness,http://www.agilityphysiotherapy.com.au/,33 Collingwood St,ALBION,4010,(07) 3862 2322,-27.432473,153.043367
Agility Physiotherapy and Pilates,Health and Fitness,http://www.agilityphysiotherapy.com.au/cms,130 Quay St,BULIMBA,4171,(07) 3399 2244,-27.450024,153.053049
Albany Creek Leisure Centre,Health and Fitness,http://www.albanycreeklc.com.au,Cnr Old Northern Rd/Explorer Dr,ALBANY CREEK,4035,(07) 3264 9900,-27.354389,152.969261
All in One Fitness Centre,Health and Fitness,http://www.allinonefitnesscentre.com.au ,62 Simpson Street,BEERWAH,4550,(07) 5439 0949,-26.85798,152.957298
Allan Border Field,Sport and Recreation,http://www.qldcricket.com.au ,1 Greg Chappell St,ALBION,4010,(07) 3292 3100,-27.435741,153.043924
Alpha Show,Festivals and Shows,(blank),Clermont Rd,ALPHA,4724,0429 853 418,-23.645323,146.637593
Alpha Swimming Pool,Health and Fitness,http://www.barcaldinerc.qld.gov.au,Dryden Street,ALPHA,4724,(07) 4651 5600,-23.650844,146.637726
Alpha Town Hall,Sport and Recreation,http://www.barcaldinerc.qld.gov.au,Tennyson Street,ALPHA,4724,(07) 4651 5600,-23.651158,146.640744
AMF Bowling Cannon Hill,Sport and Recreation,http://www.amfbowling.com.au,31 Proprietary St,TINGALPA,4173,1300 368 067,-27.472095,153.107962
AMF Bowling Capalaba,Sport and Recreation,http://www.amfbowling.com.au,9 Currumbin Ct,CAPALABA,4157,1300 368 067,-27.53346,153.206501
AMF Bowling Kedron,Sport and Recreation,http://www.amfbowling.com.au,278 Gympie Rd,KEDRON,4031,1300 368 067,-27.407159,153.031826
AMF Bowling Loganholme,Sport and Recreation,http://www.amfbowling.com.au,Logan Hyperdome Shopping Centre,LOGANHOLME,4129,1300 368 067,-27.684225,153.179625
AMF Bowling Mt Gravatt,Sport and Recreation,http://www.amfbowling.com.au,533 Kessels Rd,MACGREGOR,4109,1300 368 067,-27.561673,153.071229
AMF Bowling Redcliffe,Sport and Recreation,http://www.amfbowling.com.au,403 Elizabeth Ave,KIPPA-RING,4021,1300 368 067,-27.230321,153.085369
AMF Bowling Richlands,Sport and Recreation,http://www.amfbowling.com.au,407 Archerfield Rd,RICHLANDS,4077,1300 368 067,-27.591794,152.958571
AMF Bowling Robina,Sport and Recreation,http://www.amfbowling.com.au,Robina Town Centre,ROBINA,4226,1300 368 067,-28.071929,153.365207
Anytime Fitness,Health and Fitness,http://www.anytimefitness.com.au,138 Brisbane Rd,LABRADOR,4215,(07) 5563 7722,-27.935521,153.392235
Anytime Fitness Dalby,Health and Fitness,http://www.anytimefitness.com.au,66 Drayton Street,DALBY,4405,1300 133 189,-27.186442,151.265542
Anzac Park Olympic Pool,Health and Fitness,http://www.bundaberg.qld.gov.au,19 Quay St,BUNDABERG CENTRAL,4670,(07) 4151 5640,-24.864213,152.348822
Aramac Swimming Pool,Health and Fitness,http://www.barcaldinerc.qld.gov.au,Gordon Street,ARAMAC,4726,(07) 4651 5600,-22.971593,145.24247
Aramac Town Hall,Sport and Recreation,http://www.barcaldinerc.qld.gov.au,Lodge Street,ARAMAC,4726,(07) 4651 5600,-22.973126,145.244948
Archer Park Rail Museum,Tourist Attraction,http://www.qldrailheritage.com/archerpark/,Denison St,ROCKHAMPTON,4700,(07) 4922 2774,-23.372204,150.503548
Archerfield Speedway - Speedway Events,Sport and Recreation,http://www.brisbanespeedway.com.au,63 Colebard St West,ARCHERFIELD,4108,(07) 3277 7745,-27.578105,153.000421
Artspace,Theatre and Arts,http://www.artspacemackay.com.au,"Civic Centre Precinct, Gordon St",MACKAY,4740,(07) 4961 9722,-21.142496,149.182158
ATC Rodeo,Sport and Recreation,(blank),Sportsgrounds,APPLE TREE CREEK,4671,0404 468 226,-25.232304,152.221733
Ausdance Qld - Australian Dance Council,Theatre and Arts,http://www.ausdanceqld.org.au,"Judith Wright Centre, 420 Brunswick St",FORTITUDE VALLEY,4006,(07) 3852 3655,-27.456794,153.035591
Australia Zoo,Tourist Attraction,http://www.australiazoo.com.au,1638 Steve Irwin Way,BEERWAH,4519,(07) 5436 2000,-26.835574,152.96222
Australian Butterfly Sanctuary,Tourist Attraction,http://www.australianbutterflies.com,8 Rob Veivers Drive,KURANDA,4881,(07) 4093 7575,-16.819821,145.632502
Australian Chamber Orchestra QPAC,Theatre and Arts,http://www.aco.com.au,Cnr Grey/Melbourne Streets,SOUTH BRISBANE,4101,(07) 3840 7444,-27.473978,153.018398
Australian Lure Fly and Outdoors Expo,Festivals and Shows,http://www.lureshow.com.au,Check website for details,IPSWICH,4305,0423 464 311,-27.622856,152.760331
Australian Rugby Union-Wallaby Tests & Sevens Mtch,Sport and Recreation,http://www.rugby.com.au,Check website for details,QUEENSLAND,4000,(02) 8005 5584,-22.486941,144.43167
Australian String Quartet,Theatre and Arts,http://www.asq.com.au,Adelaide Town Hall,ADELAIDE,5005,(08) 8303 3748,-34.928691,138.601019
Australian Whale Watching,Tourist Attraction,http://www.australianwhalewatching.com.au,Marina Mirage,MAIN BEACH,4217,(07) 3630 2463,-27.944333,153.425134
B Transformed,Health and Fitness,http://www.btransformed.com.au,1/47 Bourbong Street,BUNDABERG,4670,(07) 4154 3223,-24.866753,152.345058
Babinda Swimming Pool,Health and Fitness,http://www.ymca.org.au,26 Church St,BABINDA,4861,(07) 4067 1211,-17.342415,145.921919
Bakers Military Memorabilia Museum,Tourist Attraction,(blank),Ashby Lane,CHILDERS,4660,(07) 4126 1545,-25.236925,152.279545
Balmoral Cinemas - Conditions apply see website,Cinema,http://www.cineplex.com.au,160 Oxford St,BULIMBA,4171,(07) 3395 6086,-27.451309,153.058925
Banana Shire Council,Council,http://www.banana.qld.gov.au,"Biloela, Moura, Taroom",BILOELA,4715,(07) 4992 4052,-24.39752,150.51596
Barcaldine Regional Council,Council,http://www.barcaldinerc.qld.gov.au,71 Ash Street,BARCALDINE,4725,(07) 4651 5600,-23.554189,145.288966
Barcaldine Swimming Pool,Health and Fitness,http://www.barcaldinerc.qld.gov.au,Wilga Street,BARCALDINE,4725,(07) 4651 5600,-23.552216,145.297562
Barcaldine Town Hall,Sport and Recreation,http://www.barcaldinerc.qld.gov.au,71 Ash Street,BARCALDINE,4725,(07) 4651 5600,-23.554189,145.288966
Bauhinia House,Sport and Recreation,http://www.rockhamptonregion.qld.gov.au,Cnr Berserker/High Sts,NORTH ROCKHAMPTON,4701,(07) 4928 2320,-23.359113,150.530558
Bay Connect - Computer classes,Sport and Recreation,(blank),189 Bideford St,TORQUAY,4655,(07) 4197 4660,-25.292469,152.868735
Bay Connect - Photography classes,Sport and Recreation,(blank),189 Bideford St,TORQUAY,4655,(07) 4197 4660,-25.292469,152.868735
Beach 2 Bush Adventure Hire - Bike Hire,Sport and Recreation,http://www.adventurehire.com.au, Coolum Beach,SUNSHINE COAST,4573,0439 706 206,-26.500001,153
Beach 2 Bush Adventure Hire - Bike Tours,Sport and Recreation,http://www.adventurehire.com.au,Coolum Beach,SUNSHINE COAST,4573,0439 706 206,-26.500001,153
Beach 2 Bush Adventure Hire - Surfboard Hire,Sport and Recreation,http://www.adventurehire.com.au,Coolum Beach,SUNSHINE COAST,4573,0439 706 206,-26.500001,153
Beaudesert Show,Festivals and Shows,http://www.beaudesertshow.org.au,Albert St,BEAUDESERT,4285,(07) 5541 4037,-27.991009,152.998836
Beaudesert Swimming Pool,Health and Fitness,http://www.scenicrim.qld.gov.au,Brisbane St,BEAUDESERT,4285,(07) 5463 3081,-27.980793,152.994638
Beenleigh Aquatic Centre,Health and Fitness,http://www.logan.qld.gov.au,Alamein St,BEENLEIGH,4207,(07) 3287 2163,-27.720353,153.203363
Beerwah Swimming Pool,Health and Fitness,http://www.sunshinecoast.qld.gov.au,Roberts Rd,BEERWAH,4519,(07) 5494 0022,-26.861497,152.957
Bell Bunya Community Centre,Entertainment,http://www.wdrc.qld.gov.au,71 Maxwell Street,BELL,4408,(07) 4679 4000,-26.92988,151.447772
Ben & Jerry's Openair Cinemas (check website),Cinema,http://www.openaircinemas.com.au,Rainforest Green,SOUTH BANK,4101,(07) 0000 0000,-35.471937,149.099652
Bethania Aquatic Centre,Health and Fitness,http://www.logan.qld.gov.au,88-118 Station Rd,BETHANIA,4205,(07) 3805 6032,-27.695214,153.155399
Big Cat Green Island Reef Cruises,Tourist Attraction,http://www.greenisland.com.au,The Reef Fleet Terminal,CAIRNS,4870,(07) 4051 0444,-16.922834,145.778942
Biloela Civic Centre,Entertainment,http://www.banana.qld.gov.au/civic-centre,Cnr Rainbow/Prairie Sts,BILOELA,4715,(07) 4992 1511,-24.39752,150.51596
Biloela Swimming Pool,Health and Fitness,http://www.banana.qld.gov.au,Cnr Rainbow/Prairie Sts,BILOELA,4715,(07) 4992 1445,-24.39752,150.51596
Birdworld Kuranda,Tourist Attraction,http://www.birdworldkuranda.com.au,Rob Veivers Dr,KURANDA,4881,(07) 4093 9188,-16.823772,145.630804
Blackall Show,Festivals and Shows,(blank),"Blackall Showgrounds, Salvia St",BLACKALL,4472,(07) 4657 6403,-24.42537,145.478603
Blackwater International Coal Centre,Tourist Attraction,http://www.bicc.com.au,Cnr Capricorn Hwy/Littlefield Street,BLACKWATER,4717,(07) 4982 7755,-23.485591,148.791345
Bodiez 24/7 Fitness,Sport and Recreation,http://www.bodiezfitness.com.au,4/260 Brisbane Street,WEST IPSWICH,4305,0412 140 431,-27.61949,152.749922
Bond University Fitness Centre,Health and Fitness,http://www.bond.edu.au,University Dr,ROBINA,4226,(07) 5595 4100,-28.07117,153.414105
Boonah & District Cultural Centre,Theatre and Arts,http://www.scenicrim.qld.gov.au,3 High St,BOONAH,4310,(07) 5463 3081,-27.998526,152.681764
Boonah Show Society,Festivals and Shows,http://www.boonahshowsociety.org.au,Boonah Showground,BOONAH,4310,(07) 5463 1124,-27.997943,152.68515
Boonah Swimming Pool,Health and Fitness,http://www.scenicrim.qld.gov.au,Macquarie St,BOONAH,4310,(07) 5463 3081,-27.99807,152.688455
Bowen Transit,Transport,http://www.transnorthbus.com/bowen.asp,10 Powell St,BOWEN,4805,(07) 4786 4414,-20.010519,148.248433
Brennan and Geraghty's Store and Residences,Tourist Attraction,http://nationaltrust.org.au,64 Lennox St,MARYBOROUGH,4650,(07) 4121 2250,-25.542131,152.696695
Bribie Island Aquatic Centre,Health and Fitness,http://www.moretonbay.qld.gov.au,Goodwin Dr,BRIBIE ISLAND,4507,(07) 3410 0200,-27.074205,153.163796
Bribie Island Coaches,Transport,http://www.bribiecoaches.com.au/,20-26 Armitage St,BRIBIE ISLAND,4507,(07) 3408 2562,-27.078189,153.178434
Brisbane Airtrain,Transport,http://www.airtrain.com.au,Domestic/International Airport Stations ,BRISBANE AIRPORT,4007,(07) 3216 3308,-27.38837,153.113203
Brisbane Aquatic Centre,Health and Fitness,http://www.sleemansports.org.au,Cnr Old Cleveland/Tilley Rds,CHANDLER,4155,(07) 3131 9611,-27.508452,153.149302
Brisbane Arts Theatre - Performances,Theatre and Arts,http://www.artstheatre.com.au,210 Petrie Tce,BRISBANE,4000,(07) 3369 2344,-27.465812,153.01216
Brisbane Bus Lines,Transport,http://www.brisbanebuslines.com.au,Check website for details,BRISBANE,4051,(07) 3355 0034,-27.467781,153.02806
Brisbane Cruises,Tourist Attraction,http://www.brisbanecruises.com.au,Kingsford Smith Dr,HAMILTON,4007,(07) 3630 2666,-27.439886,153.051034
Brisbane Festival,Festivals and Shows,http://www.brisbanefestival.com.au,Check website for details,VARIOUS VENUES AND EVENTS,4000,(07) 3833 5419,-27.46598,153.02394
Brisbane Jazz Club,Theatre and Arts,http://www.brisbanejazzclub.com.au,1 Annie Street,KANGAROO POINT,4169,(07) 3391 2006,-27.466502,153.034409
Brisbane Lions,Sport and Recreation,http://www.lions.com.au,Gate 2 Stanley St,WOOLLOONGABBA,4102,1300 446 925,-27.485447,153.029155
Brisbane Mother's Day Classic,Sport and Recreation,http://www.mothersdayclassic.com.au,Southbank - see website for details,BRISBANE,4000,(07) 3139 0397,-27.467781,153.02806
Brisbane Philharmonic Orchestra,Theatre and Arts,http://www.bpo.org.au,Various venues throughout S.E.Qld,BRISBANE,4060,(07) 3847 1717,-27.467781,153.02806
Brisbane Powerhouse - most ticketed events,Theatre and Arts,http://www.brisbanepowerhouse.org,119 Lamington Street,NEW FARM,4005,(07) 3358 8600,-27.468381,153.053421
Brisbane Racing Club (Race Days),Sport and Recreation,http://www.brc.com.au,"ASCOT,  EAGLE FARM and DOOMBEN Racecourse",BRISBANE RACING CLUB (RACE DAYS),4007,(07) 3268 2171,-27.435019,153.066896
Brisbane River Golf Club,Sport and Recreation,http://www.brisbanerivergolf.com.au,Golf Club  212 College Rd,KARANA DOWNS,4306,(07) 3201 0833,-27.542231,152.831767
Brisbane Roar (Suncorp Stadium),Sport and Recreation,http://www.brisbaneroar.com.au,Castlemaine Street,MILTON,4064,(07) 3331 5000,-27.464473,153.008565
Brisbane Symphonic Band,Theatre and Arts,http://www.brisbanesymphonicband.com,Check website for details,BRISBANE,4000,0407 622 271,-27.467781,153.02806
Brolga Theatre,Theatre and Arts,http://www.brolgatheatre.org,5 Walker St,MARYBOROUGH,4650,(07) 4122 6000,-25.534302,152.706173
Brookfield Show,Festivals and Shows,http://www.brookfieldshow.com,550 Brookfield Rd,BROOKFIELD,4069,(07) 3374 0040,-27.494043,152.911817
Buderim Pool,Health and Fitness,http://www.sunshinecoast.qld.gov.au,Cnr Lindsay and King St,BUDERIM,4556,(07) 5445 6685,-26.679189,153.037368
Bundaberg Greyhound Racing Club,Sport and Recreation,http://www.racingqueensland.com.au,Maynard St,BUNDABERG,4670,(07) 4152 2033,-24.889008,152.345963
Bundaberg Race Club,Sport and Recreation,http://www.queenslandracing.com.au,Maynard St,BUNDABERG,4670,(07) 4153 1416,-24.889008,152.345963
Bundaberg Railway Historical Society Inc.,Tourist Attraction,(blank),28 Station St,NTH BUNDABERG,4670,0407 134 809,-24.858383,152.330128
Bundaberg Services Club,Entertainment,http://www.bundyservicesclub.com,17 Quay St,BUNDABERG ,4670,(07) 4132 6500,-24.864218,152.34934
Bundaberg YMCA Recreation Centre,Health and Fitness,http://www.bundaberg.ymca.org.au,7 Quinn St,BUNDABERG,4670,(07) 4132 8211,-24.876087,152.367696
Bundy Bowl & Leisure Complex - Mini Golf,Sport and Recreation,http://www.bundybowl.com.au,17 Lester St,BUNDABERG,4670,(07) 4152 4334,-24.890453,152.350043
Bundy Bowl & Leisure Complex - Tenpin Bowling,Sport and Recreation,http://www.bundybowl.com.au,17 Lester St,BUNDABERG,4670,(07) 4152 4334,-24.890453,152.350043
Burdekin Race Club,Sport and Recreation,(blank),Bruce Highway,HOME HILL,4806,(07) 4782 8212,-19.672561,147.418286
Burdekin River V-Twin & Vintage Charity Bike Show,Festivals and Shows,(blank),Showgrounds,CHARTERS TOWERS,4820,0428 511 186,-20.000001,146.23333
Burdekin Theatre,Theatre and Arts,http://www.burdekintheatre.com.au,161 Queen Street,AYR,4807,(07) 4783 9882,-19.576599,147.404244
Burnett River Cruises,Transport,http://www.burnettrivercruises.com.au/,3 Quay St,BUNDABERG,4670,(07) 4152 9188,-24.862946,152.352854
Burpengary Regional Aquatic & Leisure Centre,Health and Fitness,http://burpengaryralc.com.au,1 Aquatic Centre Dr,BURPENGARY,4505,(07) 5431 3500,-27.134812,152.973659
Caboolture Bus Lines,Transport,http://www.caboolturebuslines.com.au,38 Aerodrome Rd,CABOOLTURE,4510,(07) 5495 4744,-27.082402,152.98003
Caboolture Historical Village,Tourist Attraction,http://www.historicalvillage.com.au,280 Beerburrum Rd,CABOOLTURE,4510,(07) 5495 4581,-27.05965,152.947237
Caboolture Swimming Pool,Health and Fitness,http://www.moretonbay.qld.gov.au,King Street,CABOOLTURE,4510,(07) 5498 9084,-27.075264,152.927153
Cairns Art Gallery,Theatre and Arts,http://www.cairnsartgallery.com.au,Cnr Shields/Abbott Sts,CAIRNS,4870,(07) 4046 4800,-16.921272,145.776811
Cairns Auto Spectacular,Festivals and Shows,http://www.cairnsshow.com.au,Cnr Severin St/Mulgrave Rd,CAIRNS,4870,(07) 4042 6699,-16.925143,145.764558
Cairns Historical Museum,Tourist Attraction,http://www.cairnsmuseum.org.au,"School of the Arts, Cnr Shields Lake Sts",CAIRNS,4870,(07) 4051 5582,-16.923732,145.772732
Cairns Performing Arts Centrre,Theatre and Arts,http://www.cct.com.au,Cnr Florence & Sheridan Sts,CAIRNS,4870,1300 855 835,-16.920377,145.770903
Cairns Regional Council,Council,http://www.cairns.qld.gov.au,119-145 Spence St,CAIRNS,4870,(07) 4032 6600,-16.930823,145.770653
Cairns Road Runners,Sport and Recreation,http://www.roadrunners.org.au,info@roadrunners.org.au,CAIRNS,4870,0450 324 637,-16.913723,145.77089
Cairns Show,Festivals and Shows,http://www.cairnsshow.com.au,Cnr Severin St/Mulgrave Rd,CAIRNS,4870,(07) 4042 6699,-16.925143,145.764558
Cairns Taipans Home Games (Convention Centre),Sport and Recreation,http://www.taipans.com,Cnr Wharf & Sheridan Sts,CAIRNS,4870,(07) 4041 3000,-16.928959,145.777853
Cairns Tropical Zoo,Tourist Attraction,http://www.cairnstropicalzoo.com ,Captain Cook Hwy,PALM COVE,4879,(07) 4055 3669,-16.742524,145.663902
Cairns Wildlife Dome,Tourist Attraction,http://www.cairnsdome.com.au,35-41 Wharf Street,CAIRNS,4870,(07) 4031 7250,-16.927778,145.778101
Cairns Wine Awards,Festivals and Shows,http://www.cairnsshow.com.au,Cnr Severin St/Mulgrave Rd,CAIRNS,4870,(07) 4042 6699,-16.925143,145.764558
Caloundra Aquatic Centre,Health and Fitness,http://www.caloundra-aquatic.com.au,Central Park Rd,CALOUNDRA,4551,(07) 5491 8799,-26.798603,153.128103
Caloundra Chorale Hall,Theatre and Arts,http://www.caloundrachorale.com.au,30 Naroon Cres,WURTULLA,4575,(07) 5493 2326,-26.758572,153.12455
Caloundra Music Festival,Festivals and Shows,http://www.caloundramusicfestival.com,"Kings Beach Parklands, Burgess Street",CALOUNDRA,4560,(07) 5475 7272,-26.802588,153.142691
Camp Draft,Festivals and Shows,(blank),Rangemore Rd,COOYAR,4402,(07) 4692 6164,-26.965419,151.834119
Canungra Swimming Pool,Health and Fitness,http://www.scenicrim.qld.gov.au,Moriarty Park,CANUNGRA,4275,(07) 5463 3081,-28.038049,153.13678
Capella Cultural Centre,Entertainment,http://www.capellaentertainment.com.au/,Peak Downs St,CAPELLA,4723,(07) 4984 9300,-23.084509,148.022516
Capricorn Sunbus,Transport,http://www.sunbus.com.au,82 McLaughlin St,NORTH ROCKHAMPTON,4701,(07) 4936 2133,-23.326984,150.507828
Cassowary Coast Regional Council,Council,http://www.cassowarycoast.qld.gov.au,70 Rankin Street,INNISFAIL,4860,(07) 4030 2250,-17.523019,146.030153
CBJ the Health Club,Health and Fitness,http://www.cbj.com.au,568 Kessels Rd,MACGREGOR,4109,(07) 3343 5711,-27.560929,153.071069
Centre of Contemporary Arts Cairns,Theatre and Arts,http://www.artscairns.com.au,96 Abbott St,CAIRNS,4870,(07) 4050 9401,-16.918153,145.774665
Champion's Ride Days,Sport and Recreation,http://championsridedays.com.au/,See Website for Events,STATEWIDE,4000,(07) 3287 4144,-27.46598,153.02394
Chandler Arena,Sport and Recreation,http://www.sleemansports.org.au,Cnr Old Cleveland/Tilley Rds,CHANDLER,4155,(07) 3131 9611,-27.508452,153.149302
Chandler Theatre,Theatre and Arts,http://www.sleemansports.org.au,Cnr Old Cleveland/Tilley Rds,CHANDLER,4155,(07) 3131 9611,-27.508452,153.149302
Chandler Velodrome,Sport and Recreation,http://www.sleemansports.org.au,Cnr Old Cleveland/Tilley Rds,CHANDLER,4155,(07) 3131 9611,-27.508452,153.149302
Charleville Agricultural Show,Festivals and Shows,http://www.charlevilleshow.com,Partridge Street,CHARLEVILLE,4470,(07) 4654 2290,-26.398247,146.257918
Charters Towers Amateur Race Club,Sport and Recreation,(blank),Racecourse,CHARTERS TOWERS,4820,(07) 4787 1794,-20.000001,146.23333
Charters Towers Motor Show & Swapmeet,Festivals and Shows,http://www.ctrc.com.au,SHOWGROUNDS,CHARTERS TOWERS,4820,0488 660 757,-20.000001,146.23333
Charters Towers Show,Festivals and Shows,(blank),Showgrounds,CHARTERS TOWERS,4820,(07) 4787 7292,-20.000001,146.23333
Chermside Aquatic Centre,Health and Fitness,http://www.cityaquaticsandhealth.com.au,375 Hamilton Rd,CHERMSIDE,4032,1300 733 053,-27.386024,153.035213
Childers Show,Festivals and Shows,(blank),Ridgeway Street,CHILDERS,4671,0404 468 226,-25.233059,152.273573
Chillagoe-Mungana Caves National Park,Tourist Attraction,http://www.npsr.qld.gov.au,5B Sheridan St,CAIRNS,4870,(07) 4046 6600,-16.927379,145.775929
Chinchilla Agricultural & Pastoral Assoc Inc,Festivals and Shows,(blank),2 Zeller Street,CHINCHILLA,4413,(07) 4662 7194,-26.751758,150.619787
Chinchilla Aquatic & Fitness Centre - Pool entry,Health and Fitness,http://www.swimwiseaquatics.com.au,97 Middle St,CHINCHILLA,4413,(07) 4662 7516,-26.744168,150.630071
Chinchilla Cultural Centre,Entertainment,http://www.wdrc.qld.gov.au,86 Heeney Street,CHINCHILLA,4413,(07) 4679 4000,-26.740637,150.624859
Chinchilla Ironbark Theatre,Cinema,http://www.wdrc.qld.gov.au,86 Heeney St,CHINCILLA,4413,(07) 4662 7633,-26.740637,150.624859
Christensen Bus and Coach,Transport,(blank),Saleyard Rd,KILCOY,4515,(07) 5497 1478,-26.944098,152.572004
Cineplex South Bank - Conditions apply see website,Cinema,http://www.cineplex.com.au,167 Grey St,SOUTH BANK,4101,(07) 3846 5188,-27.478813,153.021337
Cineplex Victoria Point - Conditions apply see web,Cinema,http://www.cineplex.com.au,27 Bunker Road,VICTORIA POINT,4165,(07) 3829 7900,-27.586362,153.278848
Circus Oz (Statewide),Festivals and Shows,http://www.circusoz.com,Check website for details,VARIOUS VENUES AND EVENTS,4000,(03) 9646 8899,-27.46598,153.02394
Circus Royale (Statewide),Festivals and Shows,http://www.circusroyale.com.au,Various venues,QUEENSLAND,4000,0410 669 253,-22.486941,144.43167
City Fitness Health Club,Health and Fitness,http://www.cityfitness.com.au,1b Victoria Street,MACKAY,4740,(07) 4957 8269,-21.142941,149.196108
Clem Jones Sport Centre,Health and Fitness,http://www.clemjonescentre.com.au,56 Zahel Street,CARINA,4152,(07) 3398 2107,-27.492736,153.098694
Clermont Annual Show,Festivals and Shows,http://www.clermontshow.com.au ,Clermont Showgrounds,CLERMONT,4721,(07) 4983 3023,-22.83242,147.651405
Clermont Sports Centre,Health and Fitness,http://www.clermontsportscentre.com,7 Jupiter Street,CLERMONT,4721,(07) 4983 1422,-22.82374,147.646211
Cleveland Aquatic Centre,Health and Fitness,http://www.clevelandac.com.au,222 Russell Street,CLEVELAND,4163,(07) 3286 2723,-27.528716,153.253856
Cloncurry & District Show,Festivals and Shows,http://www.cloncurryshow.com.au,Daintree St,CLONCURRY,4824,(07) 4742 0078,-20.704399,140.494912
Club Coops,Health and Fitness,http://www.clubcoops.com.au,751 Beams Road,CARSELDINE,4034,(07) 3263 5233,-27.344844,153.00919
Cobb+Co Museum,Tourist Attraction,http://www.cobbandco.qm.qld.gov.au,27 Lindsay St,TOOWOOMBA,4350,(07) 4659 4900,-27.555692,151.964603
Conservatorium of Music,Theatre and Arts,http://www.cassowarycoast.qld.gov.au,River Avenue,INNISFAIL,4860,(07) 4030 2250,-17.545522,146.026594
Cooee Bay Swimming Pool,Health and Fitness,http://www.rockhamptonregion.qld.gov.au,Matthew Flinders Dr,YEPPOON,4703,(07) 4939 5029,-23.140104,150.755018
Coolum Civic Centre,Theatre and Arts,http://www.sunshinecoast.qld.gov.au,Park St,COOLUM BEACH,4573,(07) 5475 7777,-26.530737,153.091352
Coolum Peregian Aquatic Centre,Health and Fitness,http://www.swimfit.com.au,David Low Way,COOLUM BEACH,4573,(07) 5473 9042,-26.514509,153.08811
Cooyar Annual Show,Festivals and Shows,(blank),Rangemore Rd,COOYAR,4402,(07) 4692 6164,-26.965419,151.834119
Cotton Tree Aquatic Centre,Health and Fitness,http://www.swimfit.com.au,The Esplanade,COTTON TREE,4558,(07) 5443 5601,-26.654028,153.092931
Council Kickstart CQ Activities,Sport and Recreation,http://www.kickstartcq.com.au,Various venues,ROCKHAMPTON,4700,1300 225 577,-23.400001,150.5
Cowboys Rugby League Football,Sport and Recreation,http://www.cowboys.com.au,Golf Links Dr (conditions apply) - call,KIRWAN,4817,1300 462 692,-19.303442,146.725527
Crocodile Explorer,Tourist Attraction,http://www.crocodileexplorer.com.au,"1 Spence St, The Reef Fleet Terminal",CAIRNS,4870,(07) 4031 4007,-16.925691,145.774238
Currumbin Wildlife Sanctuary,Tourist Attraction,http://www.cws.org.au,28 Tomewin St,CURRUMBIN,4223,(07) 5534 1266,-28.136139,153.488649
Dalby Aquatic Centre ,Health and Fitness,http://www.swimwiseaquatics.com.au,58E Patrick St,DALBY,4405,(07) 4662 2039,-27.184063,151.267039
Dalby Civic Theatre,Cinema,http://www.wdrc.qld.gov.au,107 Drayton St,DALBY,4405,(07) 4662 5388,-27.188713,151.269217
Dalby Show,Festivals and Shows,(blank),Nicholson St,DALBY,4405,(07) 4662 5251,-27.182552,151.254066
Darling Downs Zoo,Tourist Attraction,http://www.darlingdownszoo.com.au,21 Baines Rd,PILTON,4361,(07) 4696 4107,-27.892657,152.02641
David Fleay Wildlife Park,Tourist Attraction,http://www.npsr.qld.gov.au,West Burleigh Rd,BURLEIGH HEADS,4220,(07) 5576 2411,-28.108992,153.44094
Davis Cup Matches,Sport and Recreation,http://www.queenslandtenniscentre.com.au/,"Qld Tennis Centre, 190 King Arthur Tce",TENNYSON,4105,13 28 49,-34.894643,138.488185
Day Out With Thomas,Tourist Attraction,http://www.theworkshops.qm.qld.gov.au,North St,IPSWICH,4305,(07) 3432 5100,-27.598646,152.757904
Dayboro Annual Show,Festivals and Shows,http://www.dayboroshowsociety.com,3512 Mt Mee Rd,DAYBORO,4521,(07) 3425 1156,-27.190322,152.820858
Dayboro Pool & Gym,Health and Fitness,http://www.dayboropool.com.au,37 Williams St,DAYBORO,4521,(07) 3425 1463,-27.195153,152.826698
Deception Bay Aquatic and Fitness Centre,Health and Fitness,http://www.moretonbay.qld.gov.au/pools/,155-157 Maine Tce,DECEPTION BAY,4508,(07) 3203 0055,-27.19169,153.025026
Dendy Cinema Coorparoo,Cinema,http://www.dendy.com.au,300 Old Cleveland Rd,COORPAROO,4151,(07) 3137 6000,-27.494639,153.057718
Dendy Cinemas,Cinema,http://www.dendy.com.au,Portside Wharf Remora Road,HAMILTON,4007,(07) 3137 6000,-34.225572,138.900256
Dirranbandi Show,Festivals and Shows,(blank),Jane St,DIRRANBANDI,4486,(07) 4625 8637,-28.576265,148.230403
Dogwood Crossing Centre,Entertainment,http://www.wdrc.qld.gov.au,Cnr Dawson & Murilla Streets,MILES,4415,(07) 4679 4000,-26.659553,150.18683
Dolphins Health Precinct,Health and Fitness,http://www.dolphinshealthprecinct.com.au,Cnr Klinger & Ashmole Rds,REDCLIFFE,4020,(07) 3880 3729,-31.938472,115.94649
Don Ireland Swimming Complex,Health and Fitness,http://www.rockhamptonregion.qld.gov.au,Pattison St,EMU PARK,4710,(07) 4939 6500,-23.248816,150.820162
Dreamworld,Tourist Attraction,http://www.dreamworld.com.au,1 Dreamworld Parkway,COOMERA,4209,(07) 5588 1111,-27.871445,153.314123
Duffy's Buses,Transport,http://www.duffysbuses.com.au,28 Barolin St,BUNDABERG,4670,(07) 4151 4226,-24.8698,152.350426
Dunlop Park Pool,Health and Fitness,http://www.dunloppark.com.au/,794 Oxley Rd,CORINDA,4075,(07) 3379 1630,-27.546152,152.981803
Eagleby Aquatic Centre,Health and Fitness,http://www.logan.qld.gov.au,Cowper Ave,EAGLEBY,4207,(07) 3287 1247,-27.704087,153.209067
ECHO Bus Service,Transport,http://www.echomalanda.org.au/transport,3 English St,MALANDA,4885,(07) 4096 6634,-17.352798,145.59217
Eden Bros' Good Time Circus,Festivals and Shows,http://www.edencircus.com,Check website for details ,VARIOUS VENUES AND EVENTS,4000,0407 224 680,-27.46598,153.02394
EKKA,Festivals and Shows,http://www.ekka.com.au,RNA Showgrounds Gate entry only,BOWEN HILLS,4006,(07) 3852 1831,-27.450179,153.032482
Emerald Show,Festivals and Shows,http://www.emeraldshow.org.au,Emerald Showgrounds,EMERALD,4720,(07) 4982 4338,-37.946087,145.436005
Empire Fitness Centre,Health and Fitness,http://www.empirefitness.com.au,354 Brisbane Rd,ARUNDEL,4214,(07) 5574 6138,-27.931873,153.372177
Empire Theatre,Theatre and Arts,http://www.empiretheatre.com.au,56 Neil Street,TOOWOOMBA,4350,1300 655 299,-27.562925,151.955852
Emu Park Historical Museum,Tourist Attraction,http://www.emuparkmuseum.org.au,17 Hill St,EMU PARK,4710,(07) 4939 6080,-23.25725,150.825595
Enoggera Family Centre,Health and Fitness,http://www.brisbaneymca.org,240 South Pine Rd,ENOGGERA,4051,(07) 3355 7176,-27.417912,152.994728
Essential Fitness,Health and Fitness,http://www.essential-fitness.com.au,115 Mason Street,MAREEBA,4880,(07) 4092 2208,-17.004196,145.42118
Event Cinemas,Cinema,http://www.eventcinemas.com.au,Myer Centre,BRISBANE,4000,(07) 3027 9999,-27.470677,153.024838
Event Cinemas,Cinema,http://www.eventcinemas.com.au,Pacific Fair Shp Cnt,BROADBEACH,4218,(07) 5572 2666,-28.036551,153.427824
Event Cinemas,Cinema,http://www.eventcinemas.com.au,Grand Plaza Shp Cnt,BROWNS PLAINS,4118,(07) 3809 3422,-27.662895,153.040356
Event Cinemas,Cinema,http://www.eventcinemas.com.au,108 Grafton St,CAIRNS,4870,(07) 4031 1077,-16.921803,145.774355
Event Cinemas,Cinema,http://www.eventcinemas.com.au,"Stockland Shp Cnt, Earlville",CAIRNS,4870,(07) 4057 0000,-16.94421,145.740089
Event Cinemas,Cinema,http://www.eventcinemas.com.au,Cairns Central Shp Cnt,CAIRNS,4870,(07) 4052 1166,-16.924746,145.77154
Event Cinemas,Cinema,http://www.eventcinemas.com.au,Capalaba Central Shp Cnt,CAPALABA,4157,(07) 3823 3860,-27.523227,153.195239
Event Cinemas,Cinema,http://www.eventcinemas.com.au,Westfield Shp Cnt,CARINDALE,4152,(07) 3398 5200,-27.503159,153.101651
Event Cinemas,Cinema,http://www.eventcinemas.com.au,Westfield Shp Cnt,CHERMSIDE,4032,(07) 3632 5500,-27.391479,153.031364
Event Cinemas,Cinema,http://www.eventcinemas.com.au,Showcase on the Beach,COOLANGATTA,4225,(07) 5536 9300,-28.167912,153.538393
Event Cinemas,Cinema,http://www.eventcinemas.com.au,Indooroopilly Shp Cnt,INDOOROOPILLY,4068,(07) 3878 0011,-27.499721,152.972854
Event Cinemas,Cinema,http://www.eventcinemas.com.au,Logan Hyperdome,LOGANHOLME,4129,(07) 3906 4649,-27.684225,153.179625
Event Cinemas,Cinema,http://www.eventcinemas.com.au,Gordon St,MACKAY,4740,(07) 4957 3515,-21.143306,149.174958
Event Cinemas,Cinema,http://www.eventcinemas.com.au,Sunshine Plaza Shp Cnt,MAROOCHYDORE,4558,(07) 5409 7222,-26.654727,153.088533
Event Cinemas,Cinema,http://www.eventcinemas.com.au,Morayfield Shp Cnt,MORAYFIELD,4506,(07) 5495 1444,-27.102955,152.95034
Event Cinemas,Cinema,http://www.eventcinemas.com.au,Grandview Drive,NORTH MACKAY,4740,(07) 4942 4055,-21.122709,149.159535
Event Cinemas,Cinema,http://www.eventcinemas.com.au,Stockland Shp Cnt,NTH ROCKHAMPTON,4701,(07) 4926 6977,-23.348178,150.522748
Event Cinemas,Cinema,http://www.eventcinemas.com.au,Australia Fair Shp Cnt,SOUTHPORT,4215,(07) 5531 2200,-27.963654,153.41424
Event Cinemas,Cinema,http://www.eventcinemas.com.au,Westfield Shp Cnt,STRATHPINE,4500,(07) 3881 2037,-27.306786,152.993389
Event Cinemas,Cinema,http://www.eventcinemas.com.au,Centro Toombul Shp Cnt,TOOMBUL,4012,(07) 3260 6444,-27.416667,153.05
Event Cinemas,Cinema,http://www.eventcinemas.com.au,Strand Cinema - 163 Margaret St,TOOWOOMBA,4350,(07) 4639 3861,-27.561998,151.957903
Event Cinemas,Cinema,http://www.eventcinemas.com.au,"Grand Central Cinema, cnr Margaret/Dent Sts",TOOWOOMBA,4350,(07) 4638 0879,-27.560664,151.950516
Event Cinemas,Cinema,http://www.eventcinemas.com.au,Cnr Sturt/Blackwood Sts,TOWNSVILLE,4810,(07) 4771 4101,-19.262257,146.813218
Event Cinemas,Cinema,http://www.eventcinemas.com.au,Garden City Shp Cnt,UPPER MT GRAVATT,4122,(07) 3849 0011,-27.56305,153.082779
Event Cinemas ,Cinema,http://www.eventcinemas.com.au,cnr Brisbane/Ellenborough Sts,IPSWICH,4305,(07) 3281 8887,-27.613962,152.757882
Event Cinemas ,Cinema,http://www.eventcinemas.com.au,Robina Town Centre,ROBINA,4230,(07) 5575 9955,-28.071929,153.365207
Expressions Dance Company - Performances,Theatre and Arts,http://www.expressions.org.au,QPAC - Cnr Grey/Melbourne Sts,SOUTH BRISBANE,4101,(07) 3257 4222,-27.473978,153.018398
"Expressions Dance Company - Performances, classes,",Theatre and Arts,http://www.expressions.org.au,"Judith Wright Centre, 420 Brunswick St",FORTITUDE VALLEY,4006,(07) 3257 4222,-27.456794,153.035591
Family New Years Eve,Festivals and Shows,(blank),Nicholson St,DALBY,4405,(07) 4662 5251,-27.182552,151.254066
"Farm Fantastic Rural, Home & Lifestyle Expo",Festivals and Shows,http://www.farmfantastic.com,140 Beerburrum Rd,CABOOLTURE,4510,(07) 5490 1440,-27.067057,152.947542
Feelgood Fitness,Health and Fitness,http://www.feelgoodfitness.net/warwick,118 Palmerin Street,WARWICK,4370,(07) 4667 1211,-28.217557,152.032642
Femnasium Mackay,Health and Fitness,http://www.femnasium.com.au,118 Wood Street,MACKAY,4740,(07) 4944 0420,-21.144252,149.185041
Fernvale Indoor Sports Centre,Health and Fitness,http://www.fernvaleisc.com.au,32 Banks Creek Rd,FERNVALE,4306,(07) 5426 7520,-27.454918,152.657656
Fernwood Carindale,Health and Fitness,http://www.fernwoodfitness.com.au,14 Carindale Street,CARINDALE,4152,(07) 3395 3377,-27.50133,153.104557
Fernwood Chermside,Health and Fitness,http://www.fernwoodfitness.com.au,Westfield Shopping Centre,CHERMSIDE,4032,(07) 3861 5900,-27.385146,153.032314
Fernwood Everton Park,Health and Fitness,http://www.fernwoodfitness.com.au,747 Stafford Rd,EVERTON PARK,4053,(07) 3855 5777,-27.407472,152.996863
Fernwood Fitness Browns Plains,Health and Fitness,http://www.fernwoodfitness.com.au,48c Browns Plains,BROWNS PLAINS,4118,(07) 3800 0011,-27.662672,153.055267
Fernwood Maroochydore,Health and Fitness,http://www.fernwoodfitness.com.au,Sunshine Homemaker Centre,MAROOCHYDORE,4558,(07) 5479 0744,-26.652515,153.078983
Fernwood Morayfield,Health and Fitness,http://www.fernwoodfitness.com.au,379 Morayfield Road,MORAYFIELD,4510,(07) 5433 1187,-27.120593,152.956901
Fernwood Noosa,Health and Fitness,http://www.fernwoodfitness.com.au ,U 5  8 Selkirk Dr,NOOSAVILLE,4566,(07) 5442 4104,-26.412785,153.049914
Fernwood North Lakes,Health and Fitness,http://www.fernwoodfitness.com.au ,5-7 Discovery Drive,NORTH LAKES,4509,(07) 3886 4225,-27.240788,153.023339
Fernwood Petrie,Health and Fitness,http://www.fernwoodfitness.com.au,3 O'Loan Street,PETRIE,4502,(07) 3285 5577,-27.271064,152.97776
Fernwood Robina,Health and Fitness,http://www.fernwoodfitness.com.au,"Robina Town Centre, Arbour Lane Terraces",ROBINA,4230,(07) 5593 0938,-28.071929,153.365207
Ferny Hills Swimming Pool,Health and Fitness,http://www.fernyhillspool.com.au,71 Ferny Way,FERNY HILLS,4055,(07) 3351 1338,-27.401136,152.944285
Ferry Service Magnetic Island,Transport,http://www.sealinkqld.com.au,Breakwater Terminal Sir Leslie Thiess Dr,TOWNSVILLE,4810,(07) 4726 0800,-19.255062,146.824043
Ferry Service Palm Island,Transport,http://www.sealinkqld.com.au,Breakwater Terminal Sir Leslie Thiess Dr,TOWNSVILLE,4810,(07) 4726 0800,-19.255062,146.824043
Fitness Australia (Statewide),Health and Fitness,http://www.fitness.org.au,Over 220 Queensland locations,QUEENSLAND,4000,1800 885 560,-22.486941,144.43167
Fitness First,Health and Fitness,http://www.fitnessfirst.com.au,320 Adelaide Street,BRISBANE CITY,4000,1300 557 799,-27.464814,153.029023
Fitness First,Health and Fitness,http://www.fitnessfirst.com.au,803 Creek Road,CARINDALE,4152,1300 557 799,-27.517081,153.098017
Fitness First,Health and Fitness,http://www.fitnessfirst.com.au,230 Brunswick Street,FORTITUDE VALLEY,4006,1300 557 799,-27.45583,153.03404
Fitness First,Health and Fitness,http://www.fitnessfirst.com.au,322 Moggill Road,INDOOROOPILLY,4068,1300 557 799,-27.499721,152.972854
Fitness First,Health and Fitness,http://www.fitnessfirst.com.au,461-473 Lutwyche Road,LUTWYCHE,4030,1300 557 799,-27.425291,153.033076
Fitness First,Health and Fitness,http://www.fitnessfirst.com.au,Cnr Bermuda Street/Hooker Boulevard,MERMAID WATERS,4218,1300 557 799,-28.035217,153.40858
Fitness First,Health and Fitness,http://www.fitnessfirst.com.au,Cnr North Quay/Herschel Street,NORTH QUAY,4000,1300 557 799,-27.46823,153.018479
Fitness First,Health and Fitness,http://www.fitnessfirst.com.au,Bermuda Street,ROBINA,4230,1300 557 799,-28.05836,153.414773
Fitness First,Health and Fitness,http://www.fitnessfirst.com.au,5 Lawson Street,SOUTHPORT,4215,1300 557 799,-27.970342,153.413672
Fitness First,Health and Fitness,http://www.fitnessfirst.com.au,1-11 Lexington Road,SPRINGWOOD,4127,1300 557 799,-33.694074,150.575818
Fitness First,Health and Fitness,http://www.fitnessfirst.com.au,9 Sherwood Road,TOOWONG,4066,1300 557 799,-27.485048,152.992507
Fitness First,Health and Fitness,http://www.fitnessfirst.com.au,2084 Logan Road,UPPER MOUNT GRAVATT,4122,1300 557 799,-27.56021,153.082742
Fitness First,Health and Fitness,http://www.fitnessfirst.com.au,2021 Wynnum Rd,WYNNUM,4178,1300 557 799,-27.456813,153.155594
Fitness n Motion,Health and Fitness,http://www.fnm.com.au,5  85 Michael Ave,MORAYFIELD,4506,(07) 5428 2088,-27.101627,152.94595
Fitness Paradise Gym and Health Club,Health and Fitness,http://www.fitnessparadise.com.au,51-63 Macrossan Street,PORT DOUGLAS,4877,(07) 4099 5561,-16.485263,145.466786
Fitness Venue Whitsunday,Health and Fitness,http://www.fitnessvenue.com.au,173 Shute Harbour Rd,CANNONVALE,4802,(07) 4946 7703,-20.276796,148.697546
Fitness Venue Whitsunday,Health and Fitness,http://www.sportvenue.com.au,32 Chapman Street,PROSERPINE,4800,(07) 4945 4492,-20.403035,148.582726
Forest Lake Fitness,Health and Fitness,http://www.forestlakefitness.com.au,Cnr Forest Lake Bvd/High Sts,FOREST LAKES,4078,(07) 3279 9450,-27.624976,152.970244
Fort Lytton National Park,Tourist Attraction,http://www.npsr.qld.gov.au,South St,LYTTON,4178,(07) 3393 4647,-27.419187,153.151869
Fraser Coast Market,Tourist Attraction,http://www.frasercoastshow.com.au,Maryborough Showgrounds,MARYBOROUGH,4650,(07) 4123 5311,-25.535773,152.722274
Fraser Coast Regional Council,Council,http://www.frasercoast.qld.gov.au,Tavistock St,HERVEY BAY,4655,(07) 4197 4337,-25.300307,152.862188
Fraser Coast Show,Festivals and Shows,http://www.frasercoastshow.com.au,Maryborough Showgrounds,MARYBOROUGH ,4650,(07) 4123 5311,-25.535773,152.722274
Fraser Coast Show Youth Concert,Festivals and Shows,http://www.frasercoastshow.com.au,Maryborough Showgrounds,MARYBOROUGH,4650,(07) 4123 5311,-25.535773,152.722274
Fraser Coast Tourism and Events,Festivals and Shows,http://www.visitfrasercoast.com/events,See website for details,HERVEY BAY,4655,(07) 4196 9600,-25.290001,152.84
Fraser Coast Ute Show,Festivals and Shows,http://www.frasercoastshow.com.au,Maryborough Showgrounds,MARYBOROUGH,4650,(07) 4123 5311,-25.535773,152.722274
Freedom Health and Fitness,Health and Fitness,http://freedomhealthandfitness.com.au/beaudesert/,13 Duckett Street,BEAUDESERT,4285,(07) 5541 0999,-27.989004,153.000513
Function Well Personalised Health & Fitness Centre,Health and Fitness,http://www.functionwell.com.au,54 Doggett Street,NEWSTEAD,4005,(07) 3852 3938,-27.453698,153.043278
Gallery of Modern Art (GoMA),Theatre and Arts,http://www.qag.qld.gov.au,Stanley Pl,SOUTH BRISBANE,4101,(07) 3840 7303,-27.472012,153.01762
Gayndah Annual Show,Festivals and Shows,(blank),Spencer St,GAYNDAH,4625,(07) 4161 1477,-25.625533,151.599441
Gayndah YMCA,Health and Fitness,(blank),24 Fielding St,GAYNDAH,4625,(07) 4161 1377,-25.62432,151.604102
GC Aqua Park,Sport and Recreation,http://www.gcaquapark.com.au,Broadwater Parklands - Marine Pde,SOUTHPORT,4215,(07) 5522 8222,-27.957262,153.409588
GC Wake Park,Sport and Recreation,http://www.gcwakepark.com.au,34 Maudsland Rd,OXENFORD,4210,(07) 5522 8222,-27.908006,153.28698
Generations Healthy Life Centre,Health and Fitness,(blank),Lot 2 Old Sheep Yard Place,EMERALD,4720,(07) 4987 7319,-23.525246,148.15244
Genesis Fitness Jindalee,Health and Fitness,http://www.genesisjindalee.com.au,225 Sinnamon Rd,JINDALEE,4074,(07) 3713 3999,-27.531274,152.945116
Genesis Fitness Lawnton,Health and Fitness,http://www.genesisfitness.com.au,53 Lawnton Pocket Rd,LAWNTON,4501,(07) 3481 4555,-27.283125,152.989899
Genesis Fitness Rothwell,Health and Fitness,http://www.genesisfitness.com.au,Building 4 Morris Road West,ROTHWELL,4022,(07) 3204 9300,-27.210179,153.047393
Genesis Fitness Townsville,Health and Fitness,http://www.genesisfitness.com.au,45 Carthew Streeet,KIRWAN,4817,(07) 4723 1490,-19.314488,146.723778
Genesis Fitness Windsor,Health and Fitness,http://www.genesisfitness.com.au,"Homezone, 142 Newmarket Rd",WINDSOR,4030,(07) 3857 9000,-34.409823,138.314478
Georgie Conway Leichhardt Community Swim Centre,Sport and Recreation,http://www.ipswich.qld.gov.au/residents/healthy_li,"Leichhardt Swim Centre, Toongarra Rd",LEICHHARDT,4305,(07) 3281 8743,-33.882418,151.154762
Gin Gin Swimming Pool,Health and Fitness,http://www.bundaberg.qld.gov.au,45 Sommerset St,GIN GIN,4671,(07) 4157 2155,-24.991269,151.952551
Gladstone Aquatic Centre,Health and Fitness,http://www.gladstonerc.qld.gov.au,Glenlyon Rd,GLADSTONE,4680,(07) 4972 6822,-23.875555,151.261193
Gladstone Bowls Club,Sport and Recreation,(blank),6A Ferris St,GLADSTONE CENTRAL,4680,(07) 4972 1191,-23.849854,151.258812
Gladstone Buslink,Transport,http://www.buslinkqld.com.au/,9 Lyons St,GLADSTONE,4680,(07) 4972 1670,-23.857425,151.264482
Gladstone Entertainment Centre,Sport and Recreation,http://www.gladstonerc.qld.gov.au,58 Goondoon St,GLADSTONE,4680,(07) 4972 2822,-23.850802,151.260621
Gladstone Regional Council,Council,http://www.gladstonerc.qld.gov.au,101 Goondoon St,GLADSTONE,4680,(07) 4970 0700,-23.843297,151.255177
Gladstone Show,Festivals and Shows,(blank),Tank & Scenery Streets,GLADSTONE,4680,(07) 4972 1453,-23.851808,151.254056
Gladstone Speedway,Sport and Recreation,(blank),Tank & Scenery Streets,GLADSTONE,4680,0407 720 172,-23.851808,151.254056
Glasshouse Country Coaches,Transport,(blank),242 Pikes Rd,BEERWAH,4519,(07) 5496 9249,-26.882092,152.930626
Go Bush Activities - Brisbane Forest Park,Sport and Recreation,http://www.npsr.qld.gov.au,60 Mt Nebo Rd,THE GAP,4061,1300 130 372,-27.433604,152.924824
Go Bush Activities - Daisy Hill,Sport and Recreation,http://www.npsr.qld.gov.au,Daisy Hill Road,DAISY HILL,4127,1300 130 372,-27.637897,153.154465
Go Health Club Beenleigh,Health and Fitness,http://www.gohealthclubs.com.au,77 George St,BEENLEIGH,4207,(07) 3287 3344,-28.093001,153.449714
Go Health Club Browns Plains,Health and Fitness,http://www.gohealthclubs.com.au,18 Eastern Road,BROWNS PLAINS,4118,(07) 3809 2244,-27.663509,153.044085
Gold Coast Arts Centre,Theatre and Arts,http://www.gcac.com.au,135 Bundall Rd,SURFERS PARADISE,4217,(07) 5581 6500,-28.001514,153.416683
Gold Coast Blaze,Sport and Recreation,http://www.nbl.com.au,Oasis Shp Cnt,BROADBEACH,4218,1300 252 934,-28.029828,153.431949
Gold Coast Little Theatre,Theatre and Arts,http://www.gclt.com.au,21a Scarborough St,SOUTHPORT,4215,(07) 5532 2096,-27.971654,153.416268
Gold Coast Mother's Day Classic,Sport and Recreation,http://www.mothersdayclassic.com.au,Pratten Park - see website for details,BROADBEACH,4218,1300 132 891,-28.027544,153.431298
Gold Coast Recreation Centre,Sport and Recreation,http://www.npsr.qld.gov.au,1525 Gold Coast Hwy,PALM BEACH,4221,(07) 5507 0200,-28.098776,153.460409
Gold Coast Show,Festivals and Shows,http://www.goldcoastshow.com.au,Cnr Smith St/Parklands Dr,SOUTHPORT,4215,(07) 5591 3422,-12.730334,130.952822
Gold Coast SUNS (conditions apply),Sport and Recreation,http://www.goldcoastfc.com.au,Nerang-Broadbeach Road,CARRARA,4211,1300 136 122,-28.014454,153.347877
Gold Coast United Football Club,Sport and Recreation,http://www.goldcoastunited.com.au,Skilled Park,ROBINA,4226,(07) 5559 3906,-28.070784,153.393185
Good Life Health Clubs,Health and Fitness,http://www.goodlifehealthclubs.com.au,7027 Southport Nerang Rd,NERANG,4211,(07) 5578 0000,-27.986237,153.338296
Good Life Health Clubs,Health and Fitness,http://www.goodlifehealthclubs.com.au,19 Robina Town Centre,ROBINA,4226,(07) 5562 3700,-28.077309,153.385307
Goodlife Community Centre Fitness,Health and Fitness,http://www.goodlife.org.au,100 Buderim Pines Drive,BUDERIM PINES,4556,(07) 5444 2126,-26.686768,153.089949
Goodlife Health Club 103,Health and Fitness,http://www.goodlifehealthclubs.com.au,103 Edward Street,BRISBANE,4000,(07) 3229 0422,-27.4701,153.029064
Goodlife Health Club Alexandra Hills,Health and Fitness,http://www.goodlifehealthclubs.com.au,4-10 Windemere Rd,ALEXANDRA HILLS,4161,(07) 3820 1888,-27.52478,153.216171
Goodlife Health Club Ashgrove,Health and Fitness,http://www.goodlifehealthclubs.com.au,"Highpoint Plaza, 240 Waterworks Road",ASHGROVE,4060,(07) 3366 7706,-27.44594,152.99304
Goodlife Health Club Bardon,Health and Fitness,http://www.goodlifehealthclubs.com.au,92 Coolibah Street,BARDON,4065,(07) 3366 3511,-27.455873,152.980631
Goodlife Health Club Booval,Health and Fitness,http://www.goodlifehealthclubs.com.au,Booval Shopping Centre,BOOVAL,4305,(07) 3812 4455,-27.613345,152.786891
Goodlife Health Club Caloundra,Health and Fitness,http://www.goodlifehealthclubs.com.au,54 Caloundra Road,CALOUNDRA,4551,(07) 5413 4600,-26.795922,153.104951
Goodlife Health Club Carseldine,Health and Fitness,http://www.goodlifehealthclubs.com.au,16 Graham Road,CARSELDINE,4034,(07) 3263 9333,-27.356488,153.014321
Goodlife Health Club Chermside,Health and Fitness,http://www.goodlifehealthclubs.com.au,Westfield Shopping Centre,CHERMSIDE,4032,(07) 3326 5555,-27.385146,153.032314
Goodlife Health Club Cleveland,Health and Fitness,http://www.goodlifehealthclubs.com.au,42 Shore Street,CLEVELAND,4160,(07) 3401 9300,-27.524724,153.26437
Goodlife Health Club Graceville,Health and Fitness,http://www.goodlifehealthclubs.com.au,166 Graceville Ave,GRACEVILLE,4075,(07) 3379 3791,-27.522789,152.98884
Goodlife Health Club Helensvale,Health and Fitness,http://www.goodlifehealthclubs.com.au,L 1 Westfield Shp Cnt,HELENSVALE,4212,(07) 5581 2666,-27.929993,153.336956
Goodlife Health Club Holland Park,Health and Fitness,http://www.goodlife.org.au,193 Nursery Rd,HOLLAND PARK,4121,(07) 3849 9700,-27.530232,153.071368
Goodlife Health Club Hyperdome,Health and Fitness,http://www.goodlifehealthclubs.com.au,Logan Hyperdome,SHAILER PARK,4128,(07) 3806 5999,-27.649733,153.177501
Goodlife Health Club Ipswich,Health and Fitness,http://www.goodlifehealthclubs.com.au,Riverlink Shopping Centre,NORTH IPSWICH,4305,(07) 3813 6655,-27.59398,152.760851
Goodlife Health Club Morningside,Health and Fitness,http://www.goodlifehealthclubs.com.au,92 Junction Rd,MORNINGSIDE,4170,(07) 3896 0900,-27.462751,153.080925
Goodlife Health Club Nth Rockhampton,Health and Fitness,http://www.goodlifehealthclubs.com.au,147 Robinson Street,NTH ROCKHAMPTON,4701,(07) 4928 0333,-23.350935,150.527152
Goodlife Health Club The Valley,Health and Fitness,http://www.goodlifehealthclubs.com.au,"Homemaker City North, Wickham Street",FORTITUDE VALLEY,4006,(07) 3358 8400,-27.456794,153.035591
Goodlife Health Club Wintergarden,Health and Fitness,http://www.goodlifehealthclubs.com.au,"Level 3, Wintergarden",BRISBANE,4000,(07) 3231 9955,-27.467781,153.02806
Goombungee Rodeo,Sport and Recreation,(blank),Showgrounds,GOOMBUNGEE,4354,(07) 4694 5470,-27.305056,151.846025
Goombungee-Haden Annual Show,Festivals and Shows,(blank),Showgrounds,GOOMBUNGEE,4354,(07) 4696 5470,-27.305056,151.846025
Goomeri Swimming Pool,Sport and Recreation,http://gympieswimmingpools.com.au,Moore St,GOOMERI,4601,(07) 4168 4201,-26.184004,152.068875
Gordonvale Aquatic Centre,Health and Fitness,(blank),79 Sheppards St,GORDONVALE,4865,(07) 4056 1353,-17.089251,145.780476
Greenmount Historic Homestead,Tourist Attraction,http://www.mackay.qld.gov.au,Greenmount Rd,WALKERSTON,4751,(07) 4959 2250,-21.171631,149.03245
Gulflander,Transport,http://www.gulflander.com.au,Normanton to Croydon,QUEENSLAND,4870,(07) 4036 9355,-22.486941,144.43167
Gym4,Health and Fitness,http://www.gym4.com.au,93 Logan River Road,BEENLEIGH,4207,(07) 3807 4622,-27.713067,153.183391
Gympie Aquatic Recreation Centre,Health and Fitness,http://gympiearc.com.au/,Tozer Park Rd,GYMPIE,4570,1300 129 988,-26.187131,152.675363
Gympie Music Muster,Festivals and Shows,http://www.muster.com.au,See website for venue details,GYMPIE,4570,(07) 5482 2099,-26.183333,152.665831
Gympie Show,Festivals and Shows,http://www.gympieshow.com.au,Exhibition Rd,GYMPIE,4570,(07) 5482 1721,-26.205594,152.641577
Haidleys Panoramic Coaches,Transport,(blank),7 Lyons St,WARWICK,4370,(07) 4661 2816,-28.217523,152.039589
Harry Redford Centre,Tourist Attraction,http://www.barcaldinerc.qld.gov.au,Lodge Street,ARAMAC,4726,(07) 4651 5600,-22.973126,145.244948
Hartley's Crocodile Adventures,Tourist Attraction,http://www.crocodileadventures.com,Captain Cook Hwy,WANGETTI,4877,(07) 4055 3576,-16.658793,145.566489
Hasties Bus Service,Transport,(blank),23 Charles St,INNISFAIL,4860,(07) 4061 2043,-17.52498,146.026152
Hawthorne Cinemas - Conditions apply see website,Cinema,http://www.cineplex.com.au,271 Hawthorne Rd,HAWTHORNE,4171,(07) 3395 6086,-27.467395,153.059364
Health Club Hervey Bay,Health and Fitness,http://www.herveybayhealthclub.com.au,184 Dayman St,HERVEY BAY,4655,(07) 4128 9355,-25.289305,152.888024
Healthworks Cleveland,Health and Fitness,http://www.healthworksfitness.com.au,22 John Street,CLEVELAND,4163,(07) 3821 0100,-27.529452,153.26616
Healthworks Fitness Deagon,Health and Fitness,http://www.healthworksfitness.com.au,Deagon Market Square,DEAGON,4017,(07) 3269 5200,-27.327815,153.058856
Healthworks Fitness Margate,Health and Fitness,http://www.healthworksfitness.com.au,328 Oxley Avenue,MARGATE,4019,(07) 3284 3155,-27.241358,153.107763
Healthworks Fitness Sunnybank,Health and Fitness,http://www.healthworksfitness.com.au,Cnr Calam & Compton Rds,SUNNYBANK HILLS,4109,(07) 3272 0148,-27.609919,153.055454
Herbert River Pastoral & Agricultural Show,Festivals and Shows,(blank),Cooper St,INGHAM,4850,(07) 4776 5162,-18.655088,146.148332
Hervey Bay Aquatic Centre,Health and Fitness,http://www.frasercoast.qld.gov.au,Boundary Rd,HERVEY BAY,4655,(07) 4125 9722,-25.302001,152.86934
Hibiscus Sports Centre,Health and Fitness,(blank),90 Klumpp Rd,UPPER MT GRAVATT,4122,(07) 3403 7564,-27.552885,153.072669
Highfields Pioneer Village ,Tourist Attraction,http://www.highfieldspioneervillage.com.au/,73 Wirraglen Rd,HIGHFIELDS,4352,(07) 4696 6309,-27.441125,151.957153
Hinchinbrook Shire Council,Council,http://www.hinchinbrook.qld.gov.au,25 Lannercost St,INGHAM,4850,(07) 4776 4600,-18.651262,146.154284
Hinkler Hall of Aviation,Tourist Attraction,http://www.bundaberg.qld.gov.au,6 Mount Perry Rd,BUNDABERG,4670,(07) 4130 4400,-24.853078,152.33645
Hi-Tec Oils Toowoomba Speedway,Sport and Recreation,http://www.toowoombaspeedway.com,100 Wirths Rd,CHARLTON,4350,(07) 4630 4197,-27.530252,151.860889
Hockey Queesland Inc,Sport and Recreation,http://www.hockeyqld.com.au,State Hockey Centre,COLMSLIE,4170,(07) 3399 6577,-27.450001,153.066666
Hornibrook Bus Lines,Transport,http://www.hornibrook.com.au,19 Grice St,CLONTARF,4019,(07) 3284 1622,-27.239311,153.078677
Hou Wang Temple at Atherton Chinatown,Tourist Attraction,http://nationaltrust.org.au,86 Herberton Rd,ATHERTON,4883,(07) 4091 6945,-17.277983,145.471506
Hoyts Redcliffe,Cinema,http://www.hoyts.com.au,Peninsula Fair Shopping Centre,REDCLIFFE,4020,(02) 8071 6132,-31.938472,115.94649
Hoyts Stafford,Cinema,http://www.hoyts.com.au,Stafford City Shopping Centre,STAFFORD,4032,(02) 8071 6132,-27.407487,152.998477
Hoyts Sunnybank,Cinema,http://www.hoyts.com.au,Sunnybank Plaza Shopping Centre,SUNNYBANK,4109,(02) 8071 6132,-27.570465,153.061695
HSBC INternational Rugby Sevens World Series,Sport and Recreation,http://www.rugby.com.au,Skilled Park,ROBINA,4218,(02) 8005 5584,-28.070784,153.393185
Hub Total Fitness,Health and Fitness,http://www.hubfitness.com.au,Shop 7  85 Sun Valley Rd,GLADSTONE,4680,(07) 4978 4111,-23.881145,151.250809
Hype Health Club,Health and Fitness,http://www.hypehealthclubs.com.au,109 Currumbin Creek Rd,CURRUMBIN,4223,(07) 5534 3588,-28.233604,153.358822
Hype health Club Toowoomba,Health and Fitness,http://www.hypehealthclubs.com.au,"Centrepoint, 231 James Street",TOOWOOMBA,4350,(07) 4638 7645,-27.483331,151.93333
ifeelgood 24/7 Express Health Club,Health and Fitness,http://www.ifeelgood247.com.au,"Indooroopilly Junction, 100 Coonan St",INDOOROOPILLY,4068,1300 433 354,-27.506026,152.987079
Imax Dome Theatre,Cinema,(blank),Flinders Street East,TOWNSVILLE,4810,(07) 4721 1481,-19.268883,146.806677
Inglewood Show,Festivals and Shows,(blank),Denison St,INGLEWOOD,4387,0412 654 433,-28.413184,151.08833
Innisfail Show ,Festivals and Shows,http://innisfailshow.com.au/,"Pease Park, Palmerston Hwy",INNISFAIL,4860,(07) 4061 3051,-17.522628,146.028522
Insports Cornubia Park,Health and Fitness,http://www.insportslogan.com.au,146 Bryants Rd,SHAILER PARK,4128,(07) 3412 4250,-27.665048,153.188363
Insports Springwood Gym,Health and Fitness,http://www.insportslogan.com.au,2 Sports Drive,UNDERWOOD,4114,(07) 3120 1655,-27.610673,153.118926
Intencity Morayfield - conditions apply,Entertainment,http://www.intencity.com.au,Morayfield Shopping Centre,MORAYFIELD,4506,(07) 5495 1491,-27.103453,152.946787
Ipswich Annual Agricultural Show,Festivals and Shows,http://www.ipswichshow.com.au,81 Warwick Rd,IPSWICH,4305,(07) 3281 1577,-27.62876,152.758319
Ipswich Art Gallery,Theatre and Arts,http://www.ipswichartgallery.qld.gov.au,D'Arcy Doyle Pl,IPSWICH,4305,(07) 3810 7222,-27.614254,152.759069
Ipswich Art Gallery Art Performances,Theatre and Arts,http://www.ipswichartgallery.qld.gov.au,D'Arcy Doyle Pl,IPSWICH,4305,(07) 3810 7222,-27.614254,152.759069
Ipswich Art Gallery Art Workshops,Theatre and Arts,http://www.ipswichartgallery.qld.gov.au,D'Arcy Doyle Pl,IPSWICH,4305,(07) 3810 7222,-27.614254,152.759069
Ipswich Turf Club,Sport and Recreation,http://www.ipswichturfclub.com.au/,219 Brisbane Rd,BUNDAMBA,4304,(07) 3282 1500,-27.615316,152.80437
Isis War Memorial Pool,Health and Fitness,http://www.bundaberg.qld.gov.au,77 Churchill St,CHILDERS,4660,(07) 4126 1437,-25.235999,152.276341
James Cook Museum,Tourist Attraction,http://nationaltrust.org.au,Cnr Helen/Furneaux Sts,COOKTOWN,4895,(07) 4069 5386,-15.468392,145.250418
Jandowae Community & Cultural Centre,Entertainment,http://www.wdrc.qld.gov.au,22 George Street,JANDOWAE,4410,(07) 4679 4000,-26.781522,151.110435
Jandowae Show Society Annual Agricultural Show,Festivals and Shows,http://www.show.jandowae.com,Warra St,JANDOWAE,4410,(07) 4668 5880,-26.780742,151.10603
Jandowae Swimming Pool,Sport and Recreation,http://www.wdrc.qld.gov.au,High St,JANDOWAE,4410,(07) 4668 5264,-26.781634,151.110178
Jericho Town Hall,Sport and Recreation,http://www.barcaldinerc.qld.gov.au,Pasteur Street,JERICHO,4728,(07) 4651 5600,-23.603308,146.125502
Jetstar Gold Coast Titans,Sport and Recreation,http://www.skilledpark.com.au,Skilled Park Centre Line Pl,ROBINA,4226,(07) 5656 5500,-28.069872,153.378803
Jindalee Swimming Pool,Health and Fitness,(blank),11 Yallambee Rd,JINDALEE,4074,(07) 3376 1002,-27.532145,152.942878
Johnstone Shire Hall - Council Events,Sport and Recreation,http://www.cassowarycoast.qld.gov.au,70 Rankin Street,INNISFAIL,4860,(07) 4030 2250,-17.523019,146.030153
Jondaryan Woolshed,Tourist Attraction,http://www.jondaryanwoolshed.com,264 Jondaryan-Evanslea Rd,JONDARYAN,4403,(07) 4692 2229,-27.392291,151.572637
Judith Wright Centre of Contemporary Arts,Theatre and Arts,http://www.judithwrightcentre.com.au,420 Brunswick St,FORTITUDE VALLEY,4006,(07) 3872 9000,-27.459481,153.036949
Jungle Tours & Trekking,Tourist Attraction,http://www.jungletours.com.au,278 Hartley Street,CAIRNS,4870,(07) 4041 9440,-16.942827,145.756082
Jute Theatre Company,Theatre and Arts,http://www.jute.com.au,96 Abbott St,CAIRNS,4870,(07) 4050 9444,-16.918153,145.774665
Kandanga Swimming Pool,Health and Fitness,http://gympieswimmingpools.com.au,Lot 3 Main St,KANDANGA,4570,(07) 5484 3770,-26.388958,152.674925
Kangaroo Bus Lines,Transport,http://www.kangaroobuslines.com.au,382 Morayfield Rd,MORAYFIELD,4506,1300 287 525,-27.121483,152.955106
Kawana Waters Aquatic Centre,Health and Fitness,(blank),320 Nicklin Way Kawana Waters,BUDDINA,4575,(07) 5493 7788,-26.734883,153.126999
Kickarts Contemporary Arts,Theatre and Arts,http://www.kickarts.org.au,96 Abbott Street,CAIRNS,4870,(07) 4050 9494,-16.918153,145.774665
Kickstart Martial Arts and Yoga,Health and Fitness,http://www.kickstartmartialartsandyoga.com.au,Healy St,SOUTH TOOWOOMBA,4350,0488 609 966,-27.576837,151.948859
Kilcoy Aquatic Centre,Health and Fitness,http://www.kilcoyaquaticcentre.com,Cnr Hope/Mary Sts,KILCOY,4515,(07) 5497 1453,-26.946984,152.565642
Kilcoy Recreation & Sports Centre,Health and Fitness,(blank),cnr Hope/Mary Sts,KILCOY,4515,(07) 5497 2444,-26.946984,152.565642
Killarney NYE Rodeo,Festivals and Shows,(blank),Willow St,KILLARNEY ,4373,(07) 4664 1218,-28.34357,152.291611
Killarney Rodeo Fun Day,Festivals and Shows,(blank),Willow St,KILLARNEY,4373,(07) 4664 1218,-28.34357,152.291611
Killarney Show,Festivals and Shows,(blank),Willow St,KILLARNEY,4373,(07) 4664 1218,-28.34357,152.291611
Kingaroy Cinema,Cinema,http://www.kingaroycinema.com,4 Short St,KINGAROY,4610,(07) 4162 2336,-26.54218,151.840826
Kingaroy Show,Festivals and Shows,(blank),31 Youngman St,KINGAROY,4610,(07) 4162 5800,-26.547819,151.829685
Kingpin Bowling Townsville,Sport and Recreation,http://www.kingpinbowling.com.au,16 High Range Dr,THURINGOWA CENTRAL,4817,13 26 95,-19.320232,146.725662
Kookaburra River Queens (Cruise only),Tourist Attraction,http://www.kookaburrariverqueens.com,Eagle Street Pier,BRISBANE,4000,(07) 3221 1300,-27.467318,153.029516
Kuranda Koala Gardens,Tourist Attraction,http://www.koalagardens.com,Rob Veivers Dr,KURANDA,4881,(07) 4093 9953,-16.823772,145.630804
Kuranda Scenic Railway,Tourist Attraction,http://www.ksr.com.au,Kuranda Scenic Railway,QUEENSLAND,4870,(07) 4036 9333,-22.486941,144.43167
La Boite Theatre,Theatre and Arts,http://www.laboite.com.au,6 Musk Ave,KELVIN GROVE,4059,(07) 3007 8600,-27.454993,153.014111
La Luna Youth Arts Assoc Inc,Theatre and Arts,http://www.lalunanq.com,"Riverway Arts Centre, 20 Village Blvd",THURINGOWA,4817,(07) 4773 6377,-19.319486,146.727918
Laidley Bus Company,Transport,(blank),115 Edward St,LAIDLEY,4341,(07) 5465 1797,-27.637741,152.403183
Laidley Swim Centre,Health and Fitness,(blank),44 John St N,LAIDLEY,4341,(07) 5465 1507,-27.63253,152.392626
Lake Kawana Community Centre,Theatre and Arts,http://www.scvenuesandevents.com.au,114 Sportmans Pde,BOKARINA,4575,(07) 5413 1400,-26.740607,153.124859
Lawnton Aquatic Centre,Health and Fitness,http://www.lawntonac.com.au,cnr Gympie/Lawnton Pocket Rds,LAWNTON,4501,(07) 3285 1770,-27.281737,152.984506
Lifestyle Health Club Browns Plains,Health and Fitness,http://www.lifestylehealthclubs.com.au,1-5 Rooney Street,BROWNS PLAINS,4118,(07) 3299 1988,-27.658767,153.062868
Lifestyle Health Club Cornubia,Health and Fitness,http://www.lifestylehealthclubs.com.au,146 Bryants Rd,SHAILER PARK,4128,(07) 3806 4788,-27.665048,153.188363
Lifestyle Health Club Logan Central,Health and Fitness,http://www.lifestylehealthclubs.com.au,440 Kingston Road,LOGAN CENTRAL,4114,(07) 3299 1988,-27.676138,153.121415
Lifestyle Health Club Raceview,Health and Fitness,http://www.lifestylehealthclubs.com.au,13 Wildet Street,RACEVIEW,4305,(07) 3281 6779,-27.639046,152.778026
Lifestyle Health Club Redbank Plains,Health and Fitness,http://www.redbankplainsgym.com.au,344 Redbank Plains Road,BELLBIRD PARK,4301,(07) 3814 4455,-27.643948,152.872645
Lifestyle Health Club Springwood,Health and Fitness,http://www.lifestylehealthclubs.com.au,17 Dennis Road,SPRINGWOOD,4127,(07) 3208 7439,-27.620876,153.129337
Live Professional Wrestling,Entertainment,http://www.ipwaustralia.com.au,See website for details,NERANG,4211,0423 244 974,-27.981062,153.312272
Lockyer Valley Sports & Aquatic Centre,Health and Fitness,(blank),136 Spencer St,GATTON,4343,(07) 5462 5103,-27.560057,152.282231
Logan City Bus Service,Transport,(blank),42 Jutland St,LOGANLEA,4131,(07) 3200 9606,-27.666955,153.126257
Logan City Council,Council,http://www.logan.qld.gov.au,150 Wembley Rd,LOGAN CENTRAL,4114,(07) 3412 5172,-27.643582,153.104079
Logan Entertainment Centre,Sport and Recreation,http://www.loganentertainmentcentre.com.au,170 Wembley Rd,LOGAN CENTRAL,4114,(07) 3412 4770,-27.643382,153.102678
Logan Metro Indoor Sports Centre,Health and Fitness,http://www.insportslogan.com.au,357 Browns Plains Rd,CRESTMEAD,4132,(07) 3089 5500,-27.679933,153.087093
Lone Pine Koala Sanctuary,Tourist Attraction,http://www.koala.net,Jesmond Rd,FIG TREE POCKET,4069,(07) 3378 1366,-27.52374,152.966563
Longreach Aquatic Centre - Brian Shorter Swim Scho,Health and Fitness,(blank),81 Eagle St,LONGREACH,4730,(07) 4658 1745,-23.440329,144.250541
Longreach Civic Centre (Council event only),Sport and Recreation,http://www.longreach.qld.gov.au,96A Eagle St,LONGREACH,4730,(07) 4658 4111,-23.444921,144.246847
Longreach Powerhouse Museum,Tourist Attraction,http://www.longreach.qld.gov.au,12 Swan Street,LONGREACH,4730,(07) 4658 3933,-23.44031,144.245323
Longreach Regional Council,Council,http://www.longreach.qld.gov.au,96A Eagle St,LONGREACH,4730,(07) 4658 4111,-23.444921,144.246847
Longreach Show,Festivals and Shows,http://www.longreachannualshow.com,"Longreach Showgrounds, Kite St",LONGREACH,4730,0437 581 782,-23.348057,143.703348
Longreach Showgrounds (Council event only),Sport and Recreation,http://www.longreach.qld.gov.au,Sandpiper Street,LONGREACH,4730,(07) 4658 4111,-23.438959,144.248806
Lowood Show Society Inc,Festivals and Shows,(blank),Station St,LOWOOD,4311,(07) 5426 1351,-27.462237,152.582823
Mackay Choral Society,Theatre and Arts,http://www.mackaychoralsociety.org.au,Snow Wright Court,MACKAY,4740,0457 360 160,-21.108593,149.171348
Mackay Entertainment and Convention Centre,Sport and Recreation,http://www.mackayecc.com.au,"Civic Centre Precinct, Gordon St",MACKAY,4740,(07) 4961 9700,-21.142496,149.182158
Mackay Regional Council,Council,http://www.mackay.qld.gov.au,Gordon St,MACKAY,4740,(07) 4961 9330,-21.143306,149.174958
Mackay Show Association,Festivals and Shows,(blank),24 Milton St,MACKAY,4740,(07) 4957 3916,-21.144252,149.176442
Mackay Transit Coaches,Transport,http://www.mackaytransit.com.au,U 12  20 Titanium Dr,MACKAY,4740,(07) 4957 3330,-21.172706,149.166621
Magnetic Island Sunbus,Transport,http://www.magneticislandbusservice.com.au,44 Mandalay Avenue,NELLY BAY,4819,(07) 4778 5130,-19.153248,146.848965
Magnetic Island's Best Bus Tours,Tourist Attraction,http://www.magneticislandtours.net.au/,Nelly Bay Ferry Terminal - see website for more details,NELLY BAY,4819,0435 580 292,-19.157106,146.844761
Maleny Agricultural Show,Festivals and Shows,http://www.malenyshowsociety.org.au ,Stanley River Rd,MALENY,4552,(07) 5494 2008,-26.761756,152.852028
Maleny Botanic Gardens & Bird World,Tourist Attraction,http://www.malenybotanicgardens.com.au,233 Maleny-Stanley River Rd cnr Mountain View Rd,MALENY,4552,(07) 5408 4110,-26.779271,152.86511
Mamu Tropical Skywalk,Tourist Attraction,http://www.mamutropicalskywalk.com.au,Palmerston Hwy,INNISFAIL,4860,(07) 4064 5294,-17.613682,145.806267
Maritime Museum of Townsville,Tourist Attraction,http://www.tmml.org.au/,42-68 Palmer St,SOUTH TOWNSVILLE,4810,(07) 4721 5251,-19.259287,146.823538
Marlborough Public Swimming Pool,Health and Fitness,http://www.rockhamptonregion.qld.gov.au,Railway Pd,MARLBOROUGH,4700,(07) 4935 6306,-22.813099,149.888915
Marlin Coast Recreation Centre,Health and Fitness,(blank),1 Leisure Park Rd,SMITHFIELD,4878,(07) 4057 7507,-16.815962,145.693988
Marlin Coast Sunbus,Transport,http://www.sunbus.com.au/,7 Macpeak Crescent,SMITHFIELD,4878,(07) 4057 7411,-16.82424,145.704219
Mary Valley Annual Show,Festivals and Shows,http://www.maryvalleyshow.com.au,14 Edward St,IMBIL,4570,(07) 5484 5178,-26.461403,152.678697
Maryborough Aquatic Centre,Sport and Recreation,http://www.frasercoast.qld.gov.au,Cnr Kent & John St,MARYBOROUGH,4650,(07) 4121 5185,-25.536148,152.700127
Maryborough Speedway,Sport and Recreation,http://www.maryboroughspeedway.com.au,300 Gympie Rd,MARYBOROUGH,4650,(07) 4121 5677,-25.564084,152.665513
Memorial Swim Centre,Health and Fitness,http://www.mackay.qld.gov.au,Milton St,MACKAY,4740,(07) 4961 9533,-21.143931,149.177847
Miles Community Hall,Entertainment,http://www.wdrc.qld.gov.au,Cnr Dawson & Murilla Streets,MILES,4415,(07) 4679 4000,-26.659553,150.18683
Miles Swimming Pool,Sport and Recreation,http://www.wdrc.qld.gov.au,Marian St,MILES,4415,(07) 4627 1503,-26.65767,150.181488
Millmerran Aquatic Centre,Health and Fitness,http://www.tr.qld.gov.au/facilities-recreation,Commens St,MILLMERRAN,4357,(07) 4695 1259,-27.878154,151.263551
Millmerran Indoor Sports Centre,Health and Fitness,(blank),40-48 Commens St,MILLMERRAN,4357,(07) 4695 1036,-27.880554,151.263867
Millmerran Show,Festivals and Shows,http://www.millmerran.net.au/showsociety.html,171 Millmerran-Cecil Plains Rd,MILLMERRAN,4357,(07) 4695 4151,-27.861202,151.275476
Milne Bay Aquatic Centre,Sport and Recreation,http://www.toowoombarc.qld.gov.au,Cnr Herries/Victoria Streets,TOOWOOMBA,4350,13 18 72,-27.564567,151.950466
Mirani Museum,Tourist Attraction,http://www.mackay.qld.gov.au,Victoria St,MIRANI,4754,(07) 4961 9230,-21.159668,148.864142
Mirani Swim Centre,Health and Fitness,http://www.mackay.qld.gov.au,6 Caroline St,MIRANI,4754,(07) 4959 1239,-21.16104,148.866062
Mon Repos Turtle Centre,Tourist Attraction,http://www.npsp.qld.gov.au,Grange Rd,BUNDABERG,4670,1300 130 372,-24.814677,152.41665
Moncrieff Entertainment Centre,Theatre and Arts,http://www.bundaberg.qld.gov.au,177 Bourbong St,BUNDABERG,4670,(07) 4130 4100,-24.866154,152.347288
Monto & District Show Society,Festivals and Shows,(blank),Monto Showgrounds,MONTO,4630,(07) 4166 1295,-24.843157,151.108529
Morayfield Park Leisure Centre,Health and Fitness,http://www.moretonbay.qld.gov.au,Morayfield Rd,MORAYFIELD,4510,(07) 5498 6211,-27.120847,152.955791
Moreton Bay Able Anglers,Sport and Recreation,http://www.moretonbayfishing.com.au,Please see website for more details,CABOOLTURE,4510,0457 957 096,-27.062378,152.974961
Moreton Bay Regional Council,Council,http://www.moretonbay.qld.gov.au,PO Box 159,CABOOLTURE,4510,(07) 3283 0277,-27.083713,152.95135
Mossman & District Show,Festivals and Shows,(blank),"Coronation Park, Jack St",MOSSMAN,4873,(07) 4098 1477,-16.451075,145.373739
Mount Isa Agricultural Show,Festivals and Shows,(blank),Buchanan Park,MOUNT ISA,4825,(07) 4749 1577,-20.535881,139.455187
Mount Morgan Swimming Pool,Health and Fitness,http://www.rockhamptonregion.qld.gov.au,"Boyd Park, Thompson Ave",MOUNT MORGAN,4700,(07) 4938 1500,-23.643572,150.3966
Moura Swimming Pool,Health and Fitness,http://www.banana.qld.gov.au,Cnr Davey/Burnham Sts,MOURA,4718,(07) 4997 1680,-24.576188,149.971437
Mt Etna Caves - Bat Cleft Tours,Tourist Attraction,http://www.npsr.qld.gov.au,61 Yeppoon Rd,PARKHURST,4710,(07) 4936 0511,-23.309446,150.520683
Mt Gravatt Annual Show,Festivals and Shows,(blank),1644 Logan Rd,MT GRAVATT,4122,(07) 3349 1801,-27.543776,153.082703
Mt Gravatt Bus Lines,Transport,http://www.mtgcoach.com.au,Rochedale,ROCHEDALE SOUTH,4123,(07) 3841 3722,-27.6057,153.119702
Mt Gravatt East Pool (Sam Riley Swim Schools),Health and Fitness,http://www.samrileyswimschools.com,cnr Wecker/Newnham Rds,MT GRAVATT EAST,4122,1300 726 745,-27.534162,153.095138
Mt Isa Underground Hospital & Museum,Tourist Attraction,(blank),Joan St,MT ISA,4825,(07) 4749 0281,-20.731512,139.498309
Mt Nebo Hall,Sport and Recreation,http://www.mtnebo.org.au,View Street,MT NEBO,4520,0409 720 410,-27.396453,152.784643
Mudgeeraba Aquatic Centre,Health and Fitness,http://www.mudgeerabaaquaticcentre.com.au,80 Robert St,MUDGEERABA,4213,(07) 5530 5288,-28.075974,153.363664
Mundubbera Annual Show,Festivals and Shows,(blank),17 Bunce St,MUNDUBBERA,4626,(07) 4165 4361,-25.585102,151.298536
Murgon Agricultural Show,Festivals and Shows,(blank),42 Macalister St,MURGON,4605,(07) 4168 1427,-26.24568,151.940118
Murrumba Downs Community Pool,Health and Fitness,(blank),cnr Dohles Rocks/Ogg Rds,MURRUMBA DOWNS,4503,(07) 3886 5433,-27.264849,153.006443
Museum of Tropical Queensland,Tourist Attraction,http://www.mtq.qm.qld.gov.au,70-102 Flinders St,TOWNSVILLE,4810,(07) 4726 0600,-19.257468,146.82221
Musica Viva Australia QPAC/Conservatorium Theatre,Theatre and Arts,http://www.musicaviva.com.au,Cnr Grey/Melbourne Sts,SOUTH BRISBANE,4101,1800 688 482,-27.473978,153.018398
Muttaburra Aquatic Centre,Health and Fitness,http://www.barcaldinerc.qld.gov.au,Devon Street,MUTTABURRA,4732,(07) 4651 5600,-22.595186,144.544441
Muttaburra RSL Hall,Sport and Recreation,http://www.barcaldinerc.qld.gov.au,Bruford Street,MUTTABURRA,4732,(07) 4651 5600,-22.592297,144.537608
My Fitness Club Noosaville,Health and Fitness,http://www.myfitnessclub.com.au,1 Gateway Drive,NOOSAVILLE,4566,(07) 5474 4900,-26.411459,153.040561
My Fitness Club Sippy Downs,Health and Fitness,http://www.myfitnessclub.com.au,Chancellor Village Blvd,SIPPY DOWNS,4556,(07) 5476 5433,-26.718786,153.048322
Mystery Craters,Tourist Attraction,(blank),15 Lines Rd,SOUTH KOLAN,4670,(07) 4157 7291,-24.94185,152.141428
Nambour Aquatic Centre,Health and Fitness,http://www.swimfit.com.au,Petrie Park Rd,NAMBOUR,4560,(07) 5476 0455,-26.622241,152.959614
Nambour Civic Centre,Theatre and Arts,http://www.mve.org.au,Centenary Square Currie St,NAMBOUR,4560,(07) 5475 7777,-26.623699,152.958771
NARPACA,Theatre and Arts,http://www.narpaca.com.au,Various venues,QUEENSLAND,4551,(07) 5438 0013,-22.486941,144.43167
National Premier League Queensland,Sport and Recreation,http://footballqueensland.com.au/,Various venues,QUEENSLAND,4111,(07) 3290 4351,-22.486941,144.43167
Nerang Cineplex - Conditions apply see website,Cinema,http://www.cineplex.com.au,52 Price St,NERANG,4211,(07) 5502 0222,-27.992004,153.335538
Netball Queensland Inc,Sport and Recreation,http://www.netballq.org.au,Beaudesert Rd,MOOROOKA,4105,(07) 3848 6330,-27.54331,153.022123
Nikon SuperGP,Sport and Recreation,http://www.supergp.com,5/64 Marine Parade,SOUTHPORT,4215,(07) 5588 6800,-27.96514,153.414768
Noosa 4 WD Safaris,Sport and Recreation,http://www.noosasafaris.com.au,26 Livistona Dr,NOOSA,4562,(07) 5471 1695,-26.42372,153.013209
Noosa Aquatic Centre,Health and Fitness,http://www.sunshinecoast.qld.gov.au,6 Girraween Court,SUNSHINE BEACH,4567,(07) 5448 0288,-26.407144,153.098034
Noosa Country Show,Festivals and Shows,http://www.noosashowsociety.org.au,"Pomona Showgrounds, Exhibition St",POMONA,4568,(07) 5485 2331,-34.022088,141.889939
Noosa Ferry - Sunset Cruise,Tourist Attraction,http://www.noosaferry.com,Noosa River,NOOSA,4566,(07) 5449 8442,-26.392973,153.078856
Noosa Ferry Service,Transport,http://www.noosaferry.com,Noosa River,NOOSA,4566,(07) 5449 8442,-26.392973,153.078856
Noosa Girls Fitness,Health and Fitness,http://www.noosagirlsfitness.com.au,Noosa Fair Shopping Centre,NOOSA HEADS,4567,(07) 5447 3573,-26.404834,153.082779
Noosa Leisure Centre,Sport and Recreation,http://www.sunshinecoast.qld.gov.au,54 Eumundi Noosa Rd,NOOSAVILLE,4566,(07) 5447 1177,-26.401411,153.049228
Noosa River and Canal Cruises (Midday and Sunset),Tourist Attraction,http://www.noosariverandcanalcruises.com.au,186 Gympie Tce,NOOSAVILLE,4566,0414 727 765,-26.397717,153.060932
Normanton Sports Complex,Health and Fitness,http://www.carpentaria.qld.gov.au,Cnr Landsborough/Philp St,NORMANTON,4890,(07) 4745 2228,-17.675769,141.072113
North Lakes Aquatic Centre,Health and Fitness,http://www.northlakesac.com.au,5 The Corso,NORTH LAKES,4509,(07) 3886 2022,-27.239374,153.018011
North Stradbroke Island Bus Service,Transport,(blank),92-94 East Coast Road,DUNWICH,4183,(07) 3145 2417,-27.425273,153.519911
Northern Beaches Leisure Centre,Sport and Recreation,http://www.townsville.qld.gov.au,Erskine Pl,BURDELL,4818,(07) 4727 9000,-19.252658,146.703474
Norville Park Swimming Pool,Health and Fitness,http://www.bundaberg.qld.gov.au,148 Enterprise St,NORVILLE,4670,(07) 4151 4171,-24.890098,152.336885
NRMA Insurance Broncos (see website for details),Sport and Recreation,http://www.broncos.com.au/tickets/companion_cards,Castlemaine Street,MILTON,4064,13 28 49,-27.464473,153.008565
Oakey Aquatic Centre,Health and Fitness,(blank),56 Campbell St,OAKEY,4401,(07) 4691 1038,-27.43618,151.722161
Oktoberfest Brisbane,Festivals and Shows,http://www.oktoberfestbrisbane.com.au,RNA Showgrounds - Gregory Tce,FORTITUDE VALLEY,4006,0403 583 420,-27.452608,153.029072
Old Town Hall,Sport and Recreation,http://www.mackay.qld.gov.au,63 Sydney St,MACKAY,4740,(07) 4951 4803,-21.142436,149.187364
OMG Fitness,Health and Fitness,http://omgfitnessgroup.com.au,Orion Town Centre,SPRINGFIELD,4300,(07) 3470 0775,-27.645141,152.914619
Opera Queensland (Statewide),Theatre and Arts,http://www.operaqueensland.com.au,140 Grey St,SOUTH BRISBANE,4101,(07) 3735 3056,-27.476408,153.020407
Orienteering Queensland,Sport and Recreation,http://www.oq.asn.au,See website for club details,STATEWIDE,4000,(07) 4683 6374,-27.46598,153.02394
Outer Barcoo Interpretation Centre,Tourist Attraction,http://www.longreach.qld.gov.au,St Mary Street,ISISFORD,4731,(07) 4658 8411,-24.258009,144.438968
OzBall,Sport and Recreation,http://www.ozball.com.au,232 Old Pacific Hwy,PIMPANA,4209,(07) 5547 6300,-27.832139,153.303204
Pace at Sleeman,Health and Fitness,http://www.sleemansports.org.au,Cnr Old Cleveland/Tilley Rds,CHANDLER,4155,(07) 3131 9615,-27.508452,153.149302
Palace Barracks Cinema,Cinema,http://www.palacecinemas.com.au,61 Petrie Terrace,BRISBANE,4000,(07) 3367 1482,-27.465481,153.012439
Palace Centro Cinema,Cinema,http://www.palacecinemas.com.au,39 James Street,FORTITUDE VALLEY,4006,(07) 3852 4488,-27.457161,153.03975
Palm Beach Aquatic Centre,Health and Fitness,http://www.palmbeachac.com.au,1 Thrower Dr,PALM BEACH,4221,(07) 5534 4188,-28.131487,153.474073
Palmwoods Pool,Health and Fitness,http://www.sunshinecoast.qld.gov.au,Montville Rd,PALMWOODS,4555,(07) 5445 0110,-26.693479,152.955928
Paradise Country,Tourist Attraction,http://www.themeparks.com.au,Entertainment Drive,OXENFORD,4210,13 33 86,-27.912197,153.311924
Park Ridge Transit,Transport,http://www.busqld.com.au,3830 Mount Lindesay Hwy,PARK RIDGE,4125,(07) 3802 1233,-27.705808,153.039413
Paronella Park,Tourist Attraction,http://www.paronellapark.com.au,Japoonvale Rd,MENA CREEK,4871,(07) 4065 0000,-17.680041,145.962821
PCYC Ashmore,Health and Fitness,http://www.pcyc.org.au,Cnr Community/Dominions Rds,ASHMORE,4214,(07) 5539 5774,-27.982807,153.384172
PCYC Bayside,Health and Fitness,http://www.pcyc.org.au,cnr Alexander/McDonald Sts,LOTA,4179,(07) 3396 5017,-27.466924,153.189661
PCYC Beenleigh,Health and Fitness,http://www.pcyc.org.au,20-38 Alamein St,BEENLEIGH,4207,(07) 3380 1777,-27.711798,153.205534
PCYC Biloela,Health and Fitness,http://www.pcyc.org.au,Valentine Plains Rd,BILOELA,4715,(07) 4992 3186,-24.406123,150.515543
PCYC Blackwater,Health and Fitness,http://www.pcyc.org.au,Yeates Ave,BLACKWATER,4717,(07) 4982 5228,-23.570787,148.885638
PCYC Bowen Activity Centre,Health and Fitness,http://www.pcyc.org.au,65 William St,BOWEN,4805,(07) 4786 6149,-20.016372,148.242365
PCYC Bundaberg,Health and Fitness,http://www.pcyc.org.au,37D Maryborough Street,BUNDABERG,4670,(07) 4154 2813,-24.865872,152.345821
PCYC Caboolture,Health and Fitness,http://www.pcyc.org.au,2 Toovey Street,CABOOLTURE,4510,(07) 5495 7143,-27.069259,152.9597
PCYC Cairns,Health and Fitness,http://www.pcyc.org.au,91-97 McNamara Street,MANUNDA,4870,(07) 4053 1532,-16.905196,145.748202
PCYC Carindale,Health and Fitness,http://www.pcyc.org.au,27 Narracott Street,CARINDALE,4152,(07) 3324 9652,-27.497025,153.099869
PCYC Castle Hill,Health and Fitness,http://www.pcyc.org.au,4 Hugh St,BELGIAN GARDENS,4814,(07) 4772 3883,-19.265177,146.783797
PCYC Charters Towers,Health and Fitness,http://www.pcyc.org.au,Enterprise Road,CHARTERS TOWERS,4820,(07) 4787 3231,-20.074405,146.270445
PCYC Cloncurry,Health and Fitness,http://www.pcyc.org.au,120 King Street,CLONCURRY,4824,(07) 4742 1523,-20.702083,140.509373
PCYC Crestmead,Health and Fitness,http://www.pcyc.org.au,Crestmead Park - Gimlet Street,CRESTMEAD,4132,(07) 3805 1423,-27.689215,153.092251
PCYC Dalby,Health and Fitness,http://www.pcyc.org.au,Cooper Street,DALBY,4405,(07) 4662 4677,-27.169922,151.262769
PCYC Deception Bay,Health and Fitness,http://www.pcyc.org.au,100 Maine Terrace,DECEPTION BAY,4508,(07) 3293 0166,-27.192998,153.026769
PCYC Emerald,Health and Fitness,http://www.pcyc.org.au,114 Borilla Street,EMERALD,4720,(07) 4987 7475,-23.518644,148.165687
PCYC Fortitude Valley,Health and Fitness,http://www.pcyc.org.au,458 Wickham Street,FORTITUDE VALLEY,4006,(07) 3252 3365,-27.453543,153.03713
PCYC Gladstone,Health and Fitness,http://www.pcyc.org.au,53 Yarroon Street,GLADSTONE,4680,(07) 4972 3122,-23.843763,151.249534
PCYC Gold Coast,Health and Fitness,http://www.pcyc.org.au,180 Monaco St,BROADBEACH WATERS,4218,(07) 5538 5201,-28.021674,153.409145
PCYC Goondiwindi,Health and Fitness,http://www.pcyc.org.au,1 Russell Street,GOONDIWINDI,4390,(07) 4671 5677,-28.535374,150.294727
PCYC Hervey Bay,Health and Fitness,http://www.pcyc.org.au,O'Rourke Street,PIALBA,4655,(07) 4124 5211,-25.286421,152.834367
PCYC Hills District,Health and Fitness,http://www.pcyc.org.au,135A Olearia Street West,EVERTON HILLS,4053,(07) 3855 1980,-27.395451,152.963134
PCYC Inala,Health and Fitness,http://www.pcyc.org.au,37 Swallow Street,INALA,4077,(07) 3372 2222,-27.60115,152.977858
PCYC Innisfail,Health and Fitness,http://www.pcyc.org.au,2 Palmerston Drive,INNISFAIL,4860,(07) 4061 3442,-17.524051,146.010926
PCYC Ipswich,Health and Fitness,http://www.pcyc.org.au,1c Griffith Road,EASTERN HEIGHTS,4305,(07) 3281 2547,-27.62313,152.770218
PCYC Lang Park,Health and Fitness,http://www.pcyc.org.au,Castlemaine Street,MILTON,4064,(07) 3369 2647,-27.464473,153.008565
PCYC Logan City,Health and Fitness,http://www.pcyc.org.au,Lot 7 Jacaranda Avenue,WOODRIDGE,4114,(07) 3442 1700,-27.653775,153.110078
PCYC Mackay,Health and Fitness,http://www.pcyc.org.au,Via Norris Road,NORTH MACKAY,4740,(07) 4942 3296,-21.121191,149.167446
PCYC Mareeba,Health and Fitness,http://www.pcyc.org.au,136 Walsh Street,MAREEBA,4883,(07) 4092 4231,-16.991761,145.423082
PCYC Mornington Island,Health and Fitness,http://www.pcyc.org.au,Lardil Street,GUNUNA,4871,(07) 4745 7033,-16.665725,139.180064
PCYC Mt Gravatt,Health and Fitness,http://www.pcyc.org.au,90 Klumpp Road,MT GRAVATT,4122,(07) 3420 4655,-27.551956,153.069335
PCYC Mt Isa,Health and Fitness,http://www.pcyc.org.au,67 Isa Street,MT ISA,4825,(07) 4743 0400,-20.728292,139.486401
PCYC Nerang,Health and Fitness,http://www.pcyc.org.au,Cayuga Street,NERANG,4211,(07) 5578 2227,-28.008367,153.337512
PCYC Palm Island,Health and Fitness,http://www.pcyc.org.au,Mango Avenue,PALM ISLAND,4816,(07) 4770 1793,-18.733294,146.579447
PCYC Pine Rivers,Health and Fitness,http://www.pcyc.org.au,Les Hughes Sports Complex - Francis Rd,BRAY PARK,4500,(07) 3205 3367,-27.284236,152.958286
PCYC Redcliffe,Health and Fitness,http://www.pcyc.org.au,Klinger Rd,KIPPA RING,4020,(07) 3385 1900,-27.22033,153.093194
PCYC Redlands,Health and Fitness,http://www.pcyc.org.au,cnr Mt Cotton/Degen Rds,CAPALABA,4157,(07) 3245 4639,-27.543348,153.202865
PCYC Rockhampton,Health and Fitness,http://www.pcyc.org.au,Bridge Street,NORTH ROCKHAMPTON,4701,(07) 4927 7899,-23.372594,150.520145
PCYC Sandgate,Health and Fitness,http://www.pcyc.org.au,106 Kempster Road,SANDGATE,4017,(07) 3269 5358,-27.314604,153.049683
PCYC South Burnett,Health and Fitness,http://www.pcyc.org.au,40 Macalister Street,MURGON,4605,(07) 4168 1889,-26.247505,151.940791
PCYC Sunshine Coast,Health and Fitness,http://www.pcyc.org.au,Youth Avenue,NAMBOUR,4560,(07) 5441 2915,-26.634566,152.952442
PCYC Toowoomba,Health and Fitness,http://www.pcyc.org.au,219A James Street,TOOWOOMBA,4350,(07) 4632 8316,-27.567856,151.942297
PCYC Townsville,Health and Fitness,http://www.pcyc.org.au,Lot 2 Wellington Street,AITKENVALE,4814,(07) 4781 9100,-19.292042,146.775577
PCYC Upper Ross,Health and Fitness,http://www.pcyc.org.au,43 Allambie Lane,RASMUSSEN,4817,(07) 4789 2145,-19.364183,146.726996
PCYC Whitsundays,Health and Fitness,http://www.pcyc.org.au,Lot 105 Shute Harbour Road,AIRLIE BEACH,4802,(07) 4948 1144,-20.270765,148.709674
PCYC Yarrabah,Health and Fitness,http://www.pcyc.org.au,Back Beach Road,YARRABAH,4871,(07) 4056 9112,-16.961686,145.887269
PCYC Zillmere,Health and Fitness,http://www.pcyc.org.au,Cnr Zillmere/Church Roads,ZILLMERE,4034,(07) 3633 0244,-27.360374,153.044471
Peddells Thursday Island Tours,Transport,http://www.peddellsferry.com.au,15A Engineers Jetty The Esplanade,THURSDAY ISLAND,4875,(07) 4069 1365,-10.596519,142.243508
Physical Attraction,Health and Fitness,http://www.physicalattraction.com.au,7 Woolcock St,GARBUTT,4814,(07) 4728 4488,-19.265728,146.757015
Pine Rivers Annual Show,Festivals and Shows,http://www.pineriversshow.org.au,757 Gympie Rd,LAWNTON,4501,(07) 3205 2597,-27.28544,152.985603
Pine Rivers Australia's Biggest Morning Tea,Festivals and Shows,http://www.pineriversshow.org.au,757 Gympie Rd,LAWNTON,4501,(07) 3205 2597,-27.28544,152.985603
Pine Rivers Caravan Clubs,Festivals and Shows,http://www.pineriversshow.org.au,757 Gympie Rd,LAWNTON,4501,(07) 3205 2597,-27.28544,152.985603
Pine Rivers Craft Club,Festivals and Shows,http://www.pineriversshow.org.au,757 Gympie Rd,LAWNTON,4501,(07) 3205 2597,-27.28544,152.985603
Pine Rivers Dog Show,Festivals and Shows,http://www.pineriversshow.org.au,757 Gympie Rd,LAWNTON,4501,(07) 3205 2597,-27.28544,152.985603
Pine Rivers Poultry Show,Festivals and Shows,http://www.pineriversshow.org.au,757 Gympie Rd,LAWNTON,4501,(07) 3205 2597,-27.28544,152.985603
Pioneer Swim Centre,Health and Fitness,http://www.mackay.qld.gov.au,Malcomson St,NORTH MACKAY,4740,(07) 4957 5767,-21.122442,149.172884
Pistol Shooting Queensland Ltd,Sport and Recreation,http://www.qapsa.org,"Belmont Shooting Complex, 1485 Old Cleveland Rd",BELMONT,4153,(07) 3395 1322,-27.493744,153.125899
Pittsworth Civic Pool,Health and Fitness,(blank),42-48 Yandilla St,PITTSWORTH,4356,(07) 4693 1380,-27.716,151.635961
Polleys Coaches,Transport,http://www.polleys.com.au,Pinewood Avenue,GYMPIE,4570,(07) 5482 9455,-26.177135,152.644667
Port of Brisbane,Tourist Attraction,http://www.portbris.com.au/Community/Visitors/,3 Port Central Avenue,PORT OF BRISBANE,4178,(07) 3258 4888,-27.384543,153.175229
Proston Annual Agricultural Show,Festivals and Shows,(blank),Proston Boondooma Rd,PROSTON,4613,(07) 4168 9416,-26.170152,151.576106
Putt Putt Golf,Sport and Recreation,http://www.puttputtgolf.com.au,2492 Gold Coast Hwy,MERMAID BEACH,4218,(07) 5575 3381,-28.043461,153.43387
Qsport - Award Presentation,Sport and Recreation,http://www.qsport.org.au,Cnr Merivale/Glenelg Sts,SOUTH BRISBANE,4101,(07) 3369 8955,-27.478469,153.018857
QSport - Functions,Sport and Recreation,http://www.qsport.org.au,"BCEC, Cnr Merivale/Glenelg Sts",SOUTH BRISBANE,4101,(07) 3369 8955,-27.478469,153.018857
Queensland Art Gallery,Theatre and Arts,http://www.qag.qld.gov.au,Stanley Pl,SOUTH BRISBANE,4101,(07) 3840 7303,-27.472012,153.01762
Queensland Ballet (Statewide),Theatre and Arts,http://www.queenslandballet.com.au,Cnr Drake St/Montague Rd,WEST END,4101,(07) 3013 6666,-28.77931,114.588608
Queensland Cricket,Sport and Recreation,http://www.qldcricket.com.au,1 Greg Chappell St,ALBION,4010,(07) 3292 3100,-27.435741,153.043924
Queensland Firebirds (Home Games),Sport and Recreation,http://www.firebirds.net.au,Brisbane Convention Centre Cnr Merivale/Glenelg Sts,SOUTH BRISBANE,4101,13 28 49,-27.478469,153.018857
Queensland Museum South Bank ,Tourist Attraction,http://www.southbank.qm.qld.gov.au,Cnr Grey/Melbourne Sts,SOUTH BRISBANE,4101,(07) 3840 7555,-27.473978,153.018398
Queensland Performing Arts Centre,Theatre and Arts,http://www.qpac.com.au,Cnr Grey/Melbourne Sts,SOUTH BRISBANE,4101,(07) 3840 7444,-27.473978,153.018398
Queensland Shakespeare Ensemble,Theatre and Arts,http://info@qldshakespeare.org,"Geoffrey Rush Drama Studio, Union Rd, University of Queensland",ST LUCIA,4067,0411 172 390,-27.498998,153.004431
Queensland Theatre Company Bille Brown Studio,Theatre and Arts,http://www.qldtheatre.com.au,78 Montague Rd,SOUTH BRISBANE,4101,13 62 46,-27.472021,153.014171
Queensland Theatre Company Cremone Theatre QPAC,Theatre and Arts,http://www.qldtheatreco.com.au,Crn Grey/Melbourne Sts,SOUTH BRISBANE,4101,13 62 46,-27.478068,153.0194
Queensland Theatre Company Playhouse QPAC,Theatre and Arts,http://www.qldtheatreco.com.au,Crn Grey/Melbourne Sts,SOUTH BRISBANE,4101,13 62 46,-27.478068,153.0194
Queensland Youth Orchestras,Theatre and Arts,http://www.qyo.org.au,"Old Museum, Cnr Gregory Tce/Bowen Bridge Rd",BOWEN HILLS,4006,(07) 3257 1191,-27.444738,153.036674
QUT Gardens Theatre,Theatre and Arts,http://www.gardenstheatre.qut.edu.au,2 George St,BRISBANE,4000,(07) 3138 4455,-27.477292,153.02902
Rainforestation Nature Park,Tourist Attraction,http://www.rainforest.com.au,Kennedy Highway,KURANDA,4881,(07) 4041 5008,-16.824383,145.624142
Reading Cinema,Cinema,http://www.readingcinemas.com.au,1 Johanna Boulevard,BUNDABERG,4670,(07) 4152 1233,-24.888575,152.321671
Reading Cinema,Cinema,http://www.readingcinemas.com.au,Redbank Plaza Shp Cnt,REDBANK,4301,(07) 3818 8044,-27.64555,152.87077
Reading Cinema,Cinema,http://www.readingcinemas.com.au,Cannon Park Hervey Range Road,THURINGOWA,4817,(07) 4723 6666,-19.319993,146.721705
Reading Cinema Harbour Town,Cinema,http://www.readingcinemas.com.au,Cnr Gold Coast Highway/Oxley Drive,BIGGERA WATERS,4216,(07) 5500 9700,-27.930097,153.394129
Reading Cinemas Newmarket,Cinema,http://www.readingcinemas.com.au,400 Newmarket Rd,NEWMARKET,4051,(07) 3147 8222,-27.437171,153.008062
Redcliffe Cultural Centre,Theatre and Arts,http://www.moretonbay.qld.gov.au,Downs St,REDCLIFFE,4020,(07) 3283 0332,-27.225657,153.11045
Redfest,Festivals and Shows,http://www.redfest.com.au,Cleveland Showground,CLEVELAND,4163,(07) 3286 4858,-27.533959,153.262662
Redland City Council,Council,http://www.redland.qld.gov.au,2-16 Middle Street,CLEVELAND,4163,(07) 3829 8131,-27.526169,153.266312
Redland Performing Arts Centre,Theatre and Arts,http://www.rpac.com.au,2-16 Middle St,CLEVELAND,4163,(07) 3829 8131,-27.526169,153.266312
Redlands Indoor Sports,Health and Fitness,http://www.brisbaneymca.org,128 Link Rd,VICTORIA POINT,4165,(07) 3820 5300,-27.586125,153.293082
Reef HQ Aquarium,Tourist Attraction,http://www.reefhq.com.au,2 - 68 Flinders St,TOWNSVILLE,4810,(07) 4750 0855,-19.25769,146.823494
Ripley's Believe it or Not! Odditorium,Tourist Attraction,http://www.ripleys.com/surfersparadise,"Soul, Cavill Mall",SURFERS PARADISE,4217,(07) 5592 0040,-28.001662,153.422932
Riverlife Adventure Centre - Bike Hire,Sport and Recreation,http://www.riverlife.com.au,"Naval Stores, off Lower River Tce",KANGAROO POINT,4169,(07) 3891 5766,-34.000642,151.096109
Riverlife Adventure Centre - Group Abseiling,Sport and Recreation,http://www.riverlife.com.au,"Naval Stores, off Lower River Tce",KANGAROO POINT,4169,(07) 3891 5766,-34.000642,151.096109
Riverlife Adventure Centre - Group Kayaking,Sport and Recreation,http://www.riverlife.com.au,"Naval Stores, off Lower River Tce",KANGAROO POINT,4169,(07) 3891 5766,-34.000642,151.096109
Riverlife Adventure Centre - Group Rock Climbing,Sport and Recreation,http://www.riverlife.com.au,"Naval Stores, off Lower River Tce",KANGAROO POINT,4169,(07) 3891 5766,-34.000642,151.096109
Riverlife Adventure Centre - Kayak Hire,Sport and Recreation,http://www.riverlife.com.au,"Naval Stores, off Lower River Tce",KANGAROO POINT,4169,(07) 3891 5766,-34.000642,151.096109
Riverlife Adventure Centre - Skate Hire,Sport and Recreation,http://www.riverlife.com.au,"Naval Stores, off Lower River Tce",KANGAROO POINT,4169,(07) 3891 5766,-34.000642,151.096109
Riverlife Mirrabooka,Sport and Recreation,http://www.riverlife.com.au,"Naval Stores, off Lower River Tce",KANGAROO POINT,4169,(07) 3891 5766,-34.000642,151.096109
Riverway Arts Centre,Theatre and Arts,http://www.townsville.qld.gov.au,20 Village Blvd,THURINGOWA CENTRAL,4817,(07) 4773 8889,-19.319764,146.729138
Roar Against Racism Match,Sport and Recreation,http://www.brisbaneroar.com.au,"Ballymore, Eastern Grandstand",HERSTON,4006,(07) 3123 7108,-27.448438,153.021959
Rockhampton Art Gallery,Tourist Attraction,http://www.rockhamptonartgallery.com.au/,62 victoria Pde,ROCKHAMPTON,4700,(07) 4936 8248,-23.372714,150.509
Rockhampton Heritage Village,Tourist Attraction,http://www.rockhamptonregion.qld.gov.au,"296 Boundary Rd, 10klm north of Rockhampton City Centre",PARKHURST,4702,(07) 4936 8688,-23.306538,150.518248
Rockhampton Music Bowl,Theatre and Arts,http://www.rockhamptonregion.qld.gov.au,Yaamba Rd,ROCKHAMPTON,4700,(07) 4924 5600,-23.400001,150.5
Rockhampton Regional Council,Council,http://www.rrc.qld.gov.au,232 Bolsover St,ROCKHAMPTON,4700,(07) 4939 9200,-23.38188,150.513685
Rockhampton Showgrounds,Sport and Recreation,http://www.rockhamptonshowgrounds.com.au,2 Cambridge St,ROCKHAMPTON,4700,(07) 4924 5600,-23.378041,150.502269
Rockhampton Zoo,Tourist Attraction,http://www.rockhamptonregion.qld.gov.au ,Spencer St,ROCKHAMPTON,4700,(07) 4922 1654,-23.399629,150.490933
Rockpool Water Park,Health and Fitness,http://www.rockhamptonregion.qld.gov.au,Berserker St,NORTH ROCKHAMPTON,4700,(07) 4928 2261,-23.366668,150.533333
Rollerdrome,Sport and Recreation,http://www.rollerdrome.com.au,19 Caloundra Rd,CALOUNDRA,4550,(07) 5491 4255,-26.797025,153.112863
Rondo Theatre,Theatre and Arts,http://www.therondo.com.au,46 Greenslopes St,EDGE HILL,4870,1300 855 835,-16.902743,145.734885
Royal Bulls Head Inn,Tourist Attraction,http://nationaltrust.org.au,37 Drayton St,DRAYTON,4350,(07) 4637 2278,-27.576902,151.937885
Russell Island Pool,Health and Fitness,http://www.brisbaneymca.org,Cnr High & Burrows Sts,RUSSELL ISLAND,4184,(07) 3409 1503,-27.670515,153.383117
Sailability Bayside,Sport and Recreation,http://websites.sportstg.com/assoc_page.cgi?client,Trafalgar St,MANLY,4178,0432 152 310,-27.451801,153.189227
Sailability Biloela,Sport and Recreation,(blank),Biloela,BILOELA,4715,0458 460 832,-24.39752,150.51596
Sailability Bundaberg,Sport and Recreation,http://www.sailabilitybundaberg.com/,Yacht Club,BUNDABERG,4670,(07) 4151 3260,-24.794202,152.388324
Sailability Capricornia,Sport and Recreation,http://www.sailabilitycapricornia.org,"Capricorn Cruising Yacht Club, Roslyn Bay Marina",YEPPOON,4703,0400 742 053,-23.122102,150.748248
Sailability Darling Downs,Sport and Recreation,http://www.sailabilitydd.org/,Cooby Creek Reservoir,GROOMSVILLE,4352,0419 176 441,-27.396881,151.943703
Sailability Gold Coast,Sport and Recreation,(blank),"Southport Yacht Club, 1 Marina Cres",HOLLYWELL,4216,0405 199 934,-27.8953,153.399505
Sailability Graceville,Sport and Recreation,http://www.sailabilitygraceville.wordpress.com/,Pamphlett Sea Scouts,GRACEVILLE,4075,0491 113 477,-27.56368,152.970734
Sailability Mooloolaba,Sport and Recreation,http://sailabilitysunshinecoast.org/,"Mooloolaba Yacht Club, Parkyn Pde",MOOLOOLABA,4557,0488 578 466,-26.675581,153.115143
Sailability Shorncliffe,Sport and Recreation,(blank),"Queensland Cruising Yacht Club, Sinbad St",SHORNCLIFFE,4017,(07) 3264 3851,-27.327401,153.081594
Sailability Tin Can Bay,Sport and Recreation,(blank),"Tin Can Bay Yacht Club, Norman Point",TIN CAN BAY,4580,0400 742 053,-25.903605,152.939077
Sailability Whitsunday,Sport and Recreation,http://www.sailabilitywhitsunday.org/,Whitsunday Sailing Club,AIRLIE BEACH,4802,0499 835 111,-20.271779,148.716967
Sarina Sugar Shed,Tourist Attraction,http://www.sarinasugarshed.com.au,Field of Dreams Parkland,SARINA,4737,(07) 4943 2801,-21.437609,149.188009
Sarina Swim Centre,Health and Fitness,http://www.mackay.qld.gov.au,Cnr Anzac/Bell Sts,SARINA,4737,1300 622 529,-21.437609,149.188009
Scenic Rim Regional Council,Council,http://www.scenicrim.qld.gov.au,82 Brisbane St,BEAUDESERT,4285,(07) 5463 3081,-27.987268,152.99529
Schonell Cinema (excludes private bookings),Cinema,http://www.schonell.com,"Blg 22 Level 3, Union St, University of Queensland",ST LUCIA,4072,(07) 3377 2988,-27.498998,153.004431
Schonell Live Theatre (excludes private bookings),Theatre and Arts,http://www.schonell.com,"Blg 22 Level 3, Union St, University of Queensland",ST LUCIA,4072,(07) 3377 2988,-27.498998,153.004431
Schotia Place,Sport and Recreation,http://www.rrc.qld.gov.au,201 Bolsover St,ROCKHAMPTON,4700,(07) 4936 8551,-23.381093,150.514392
Sciencentre,Tourist Attraction,http://www.southbank.qm.qld.gov.au,Cnr Grey/Melbourne Sts,SOUTH BRISBANE,4101,(07) 3840 7955,-27.473978,153.018398
SEA LIFE Sunshine Coast,Tourist Attraction,http://www.sealifesunshinecoast.com.au,The Wharf,MOOLOOLABA,4556,(07) 5458 6226,-26.683759,153.113957
Sea World,Tourist Attraction,http://www.themeparks.com.au,Sea World Dr,MAIN BEACH,4217,13 33 86,-27.968105,153.423207
Skateaway Albany Creek,Sport and Recreation,http://www.skateaway.net.au,Albany Shopping Village - 700 Albany Creek Rd,ALBANY CREEK,4035,(07) 3325 1711,-27.346656,152.969107
Skilled Park,Sport and Recreation,http://www.skilledpark.com.au,Centreline Place,ROBINA,4226,(07) 5656 5500,-28.068974,153.378573
Skyrail Rainforest Cableway (One-way and Return),Tourist Attraction,http://www.skyrail.com.au,Cnr Captain Cook Hwy/Cairns Western Arterial Rd,"SMITHFIELD, CAIRNS",4878,(07) 4038 1555,-16.841241,145.713751
Sleeman Sports Complex,Sport and Recreation,http://www.sleemansports.org.au,Cnr Old Cleveland/Tilley Rds,CHANDLER,4155,(07) 3131 9611,-27.508452,153.149302
Snap Fitness Arana Hills,Health and Fitness,http://www.snapfitness.com.au/gyms/arana-hills/,22 Nepean Ave,ARANA HILLS,4054,0427 911 118,-27.397057,152.959675
Snap Fitness Birkdale,Health and Fitness,http://www.snapfitness.com.au,102-108 Birkdale Road,BIRKDALE,4159,0411 664 726,-27.501687,153.210145
Snap Fitness Carina,Health and Fitness,http://www.snapfitness.com.au,799 Old Cleveland Rd,CARINA,4152,(07) 3161 1066,-27.495919,153.089603
Snap Fitness Cleveland,Health and Fitness,http://www.snapfitness.com.au,16 Weippin St,CLEVELAND,4163,(07) 3286 3397,-27.542075,153.250068
Snap Fitness Holland Park,Health and Fitness,http://www.snapfitness.com.au,1230 Logan Road,HOLLAND PARK,4122,0434 770 033,-27.530039,153.072907
Snap Fitness Morningside,Health and Fitness,http://www.snapfitness.com.au,"Colmslie Plaza, 38 Junction Rd",MORNINGSIDE,4170,(07) 3395 6722,-27.457082,153.087703
Snap Fitness Strathpine,Health and Fitness,http://www.snapfitness.com.au,Westfield Shopping Centre,STRATHPINE,4500,(07) 3142 0513,-27.301125,152.99077
South Burnett Speedway Club,Sport and Recreation,http://www.southburnettspeedway.com,Youngman Street,KINGAROY,4610,0427 643 085,-26.536315,151.836837
Southern Cross Transit,Transport,http://www.southerncrosstransit.com.au,251 Mt Crosby Rd,KARALEE,4306,(07) 3812 2520,-27.573226,152.791515
Southern Districts Basketball,Sport and Recreation,http://www.spartans.basketball.net.au,Zanel St,CARINA,4152,(07) 3398 2790,-35.214164,141.095109
Spectrum Recreation and Fitness,Sport and Recreation,http://www.spectrum.org.au,10 Leanne Cres,LAWNTON,4501,(07) 3889 8888,-27.291177,152.989058
Spirit of the Outback,Transport,http://www.queenslandrail.com.au,Brisbane to Longreach,QUEENSLAND,4000,1800 872 467,-22.486941,144.43167
Splash Chermside Swimming Pool - Fitness Pool,Health and Fitness,http://www.splash.com.au,375 Hamilton Rd,CHERMSIDE,4032,(07) 3359 6134,-27.386024,153.035213
Splash Chermside Swimming Pool - Group bookings,Health and Fitness,http://www.splash.com.au,375 Hamilton Rd,CHERMSIDE,4032,(07) 3359 6134,-27.386024,153.035213
Splash Chermside Swimming Pool - Hydro Pool,Health and Fitness,http://www.splash.com.au,375 Hamilton Rd,CHERMSIDE,4032,(07) 3359 6134,-27.386024,153.035213
Splash Chermside Swimming Pool - Learn to Swim,Health and Fitness,http://www.splash.com.au,375 Hamilton Rd,CHERMSIDE,4032,(07) 3359 6134,-27.386024,153.035213
Splash Chermside Swimming Pool - Squad Swimming,Health and Fitness,http://www.splash.com.au,375 Hamilton Rd,CHERMSIDE,4032,(07) 3359 6134,-27.386024,153.035213
Splash Chermside Swimming Pool - Swimfit,Health and Fitness,http://www.splash.com.au,375 Hamilton Rd,CHERMSIDE,4032,(07) 3359 6134,-27.386024,153.035213
Splash Chermside Swimming Pool - Water Park,Health and Fitness,http://www.splash.com.au,375 Hamilton Rd,CHERMSIDE,4032,(07) 3359 6134,-27.386024,153.035213
Sportsworld Fitness,Health and Fitness,http://www.sportsworldcairns.com,268 Gatton St,WESTCOURT,4870,(07) 4051 2863,-16.927031,145.749854
Springsure Show,Festivals and Shows,(blank),"Showgrounds, Barcoo Street",SPRINGSURE,4722,(07) 4984 1767,-24.096819,148.073203
St Helena National Park,Tourist Attraction,http://www.npsr.qld.gov.au,St Helena Island,ST HELENA ISLAND,4178,(07) 3396 5113,-37.6895,145.129478
Stanthorpe Campdraft,Sport and Recreation,http://www.stanagsociety.com.au/,High Street,STANTHORPE,4380,(07) 4681 2107,-28.649205,151.943169
Stanthorpe Little Theatre,Theatre and Arts,http://stanthorpelittletheatre.org.au,20 Connor St,STANTHORPE,4380,0405 244 575,-28.650009,151.937522
Stanthorpe Rodeo,Sport and Recreation,http://www.stanagsociety.com.au/,High Street,STANTHORPE,4380,(07) 4681 2107,-28.649205,151.943169
Stanthorpe Show,Festivals and Shows,http://www.stanagsociety.com.au/,High Street,STANTHORPE,4380,(07) 4681 2107,-28.649205,151.943169
Stanthorpe YMCA,Health and Fitness,(blank),Talc St,STANTHORPE,4380,(07) 4681 2411,-28.652228,151.93196
State of Origin (NRL) Conditions Apply,Sport and Recreation,http://www.qrl.com.au,"Suncorp Stadium, Castlemaine St",MILTON,4064,(07) 3367 6000,-35.319382,150.439058
Steam Train Sunday - departs Roma St Station,Tourist Attraction,http://www.theworkshops.qm.qld.gov.au,North St,IPSWICH,4305,(07) 3432 5100,-27.598646,152.757904
Stewart & Sons Coaches,Transport,(blank),66 Targo Street,BUNDABERG,4670,(07) 4153 2646,-24.869257,152.352884
Storm King Dam Camp,Health and Fitness,(blank),"Stanthorpe YMCA, Talc St",STANTHORPE,4380,(07) 4681 2411,-28.659973,151.93756
Story Bridge Adventure Climb,Sport and Recreation,http://www.sbac.net.au,170 Main St,KANGAROO POINT,4169,(07) 3514 6900,-27.467802,153.035588
Strand Fitness,Health and Fitness,http://www.strandfitness.com.au,"L 4, 31 Leichhardt St",NORTH WARD,4810,(07) 4772 0002,-19.253305,146.813426
Strand Swim School,Health and Fitness,http://www.strandswims.com.au,The Strand,NORTH WARD,4810,(07) 4772 6550,-19.248932,146.813889
Strength2Strength Health and Fitness,Health and Fitness,http://www.strength2strength.com.au,Robina Parkway Medical Centre,ROBINA,4226,(07) 5562 2855,-28.070784,153.393185
Sugarworld Waterpark,Health and Fitness,http://sugarworldwaterpark.com.au/,Hambledon Dr,EDMONTON,4869,(07) 4055 5477,-17.021751,145.729306
Suncoast Fitness Centre,Health and Fitness,http://www.suncoastfitness.com.au,102 Wises Road,MAROOCHYDORE,4557,(07) 5409 7000,-26.671776,153.084875
Sunreef Scuba Diving Services,Sport and Recreation,http://www.sunreef.com.au,110 Brisbane Rd,MOOLOOLABA,4557,(07) 5444 5656,-26.686905,153.115649
Sunshine Castle,Tourist Attraction,http://www.sunshinecastle.com,292-296 David Low Way,BLI BLI,4560,(07) 5448 4477,-26.63373,153.038358
Sunshine Coast Recreation Centre,Sport and Recreation,http://www.npsr.qld.gov.au,80 Currimundi Rd,CURRIMUNDI,4551,(07) 5420 7500,-26.772298,153.133219
Sunshine Coast Regional Council,Council,http://www.sunshinecoast.qld.gov.au,Cnr Currie and Bury Street,NAMBOUR,4560,(07) 5441 8154,-26.628785,152.955894
Sunshine Coast Sunbus,Transport,http://www.sunbus.com.au,9 Bonanza Ct,MARCOOLA,4564,(07) 5450 7888,-26.609168,153.083492
Sunshine Coast Symphony Orchestra,Theatre and Arts,http://sunshinecoastsymphonyorchestra.com/sub/,Various Venues,BUDERIM,4556,0414 478 091,-26.68642,153.063146
Sunshine Coast Turf Club,Sport and Recreation,http://www.sctc.com.au,170 Pierce Ave,CALOUNDRA,4551,(07) 5491 6788,-26.78744,153.079621
Supanova Pop Culture,Festivals and Shows,http://www.supanova.com.au,Check website for details,VARIOUS VENUES AND EVENTS,4000,(07) 3224 8747,-27.46598,153.02394
Surfside Bus Lines,Transport,http://www.surfside.com.au,U 1  43 Commerce Dr,ROBINA,4226,(07) 5574 5900,-28.064791,153.403711
Swimfit Eumundi ,Health and Fitness,http://www.swimfit.com.au/eumundi ,Memorial Dr,EUMUNDI,4562,(07) 5442 7186,-26.472188,152.94699
Swimming Queensland Swim Meets,Sport and Recreation,http://www.qld.swimming.org.au,Sports Rd,CHANDLER,4155,(07) 3390 2011,-27.51267,153.147975
Tablelands Folk Festival,Festivals and Shows,http://www.tablelandsfolkfestival.org,Yungaburra,ATHERTON,4883,0419 771 978,-17.271505,145.596968
Tamborine Mt Swimming Pool,Health and Fitness,http://www.scenicrim.qld.gov.au,Beacon Rd,TAMBORINE MT,4270,(07) 5463 3081,-27.870758,153.134683
Tanks Arts Centre,Theatre and Arts,http://www.tanksartscentre.com,46 Collins Av,EDGE HILL,4870,(07) 4032 6600,-16.898866,145.750519
Taroom Swimming Pool,Health and Fitness,http://www.banana.qld.gov.au,Yaldwin St,TAROOM,4420,(07) 4627 3344,-25.641161,149.794271
Tarragindi Fitness,Health and Fitness,http://tarragindifitness.com.au/,195 Fingal St,TARRAGINDI,4121,(07) 3848 5949,-27.527827,153.043679
Tarzali Lakes Aquaculture Centre,Tourist Attraction,http://www.tarzalilakes.com,Millaa Malanda Rd,MALANDA,4870,(07) 4097 2713,-17.375079,145.587521
Tasman Venture - Whale Watching Tours,Tourist Attraction,http://www.tasmanventure.com.au,Urangan Boat Harbour,HERVEY BAY,4655,(07) 4124 3222,-25.289281,152.865179
Tattersalls Racing Club (Racedays),Sport and Recreation,http://www.tattersallsclub.com,Eagle Farm Race Course,ASCOT,4007,(07) 3331 8888,-27.430488,153.058183
The Atherton Show,Festivals and Shows,http://www.athertonshow.com.au,"Merriland Hall Showgrounds, 10 Louise St",ATHERTON,4883,(07) 4091 4260,-17.285802,145.528169
The Australian Ballet (QPAC),Theatre and Arts,http://www.australianballet.com.au,Cnr Grey/Melbourne Sts,SOUTH BRISBANE,4101,1300 369 741,-27.473978,153.018398
The Big Rig Night Show,Festivals and Shows,http://www.maranoa.qld.gov.au/,2 Riggers Rd,ROMA,4455,(07) 4622 2325,-26.573973,148.799736
The Bundaberg & District Historical Museum,Tourist Attraction,(blank),Young St,NORTH BUNDABERG,4670,(07) 4152 0101,-24.848228,152.333838
The Centre for Arts & Culture,Theatre and Arts,http://www.scenicrim.qld.gov.au,82 Brisbane St,BEAUDESERT,4285,(07) 5463 3081,-27.987268,152.99529
The Events Centre Caloundra,Theatre and Arts,http://www.theeventscentre.com.au,20 Minchinton St,CALOUNDRA,4551,(07) 5491 4240,-26.802666,153.130768
The Gap Health and Racquet Club,Health and Fitness,http://www.healthracquet.net,200 Settlement Road,THE GAP,4061,(07) 3300 6668,-27.430835,152.942682
The Inlander,Transport,http://www.queenslandrail.com.au,Townsville to Mt Isa,QUEENSLAND,4000,1800 872 467,-22.486941,144.43167
The J,Theatre and Arts,http://www.thej.com.au,60 Noosa Dr,NOOSA HEADS,4567,(07) 5455 4455,-26.395316,153.088294
The Leap & District Community Hall,Sport and Recreation,(blank),Westlake Drive,THE LEAP,4740,(07) 4954 0866,-21.065932,149.016554
The Mount Morgan Railway Museum,Tourist Attraction,http://www.rockhamptonregion.qld.gov.au,1 Railway Pd,MOUNT MORGAN,4700,(07) 4938 2312,-23.638614,150.386858
The Oil Patch Museum,Tourist Attraction,http://www.maranoa.qld.gov.au/,2 Riggers Road,ROMA,4455,(07) 4622 2325,-26.573973,148.799736
The Pilbeam Theatre,Theatre and Arts,http://www.pilbeamtheatre.com.au,Victoria Parade,ROCKHAMPTON,4700,(07) 4927 4111,-23.370487,150.506997
The Playhouse Theatre (Bundaberg Players only),Theatre and Arts,http://www.theplayhousetheatre.org.au,2B Steffensen St,BUNDABERG,4670,(07) 4153 1904,-24.877214,152.332961
The Queensland Symphony Orchestra,Theatre and Arts,http://www.qso.com.au,"Various events, check website for details",STATEWIDE,4000,(07) 3833 5000,-27.46598,153.02394
The Rainforest Habitat Wildlife Sanctuary,Tourist Attraction,http://www.rainforesthabitat.com.au,Port Douglas Road,PORT DOUGLAS,4877,(07) 4099 3235,-16.513967,145.464071
The Rockhampton Show,Festivals and Shows,http://www.rockhamptonshow.com.au/,1 Exhibition Rd,ROCKHAMPTON,4700,(07) 4922 4900,-23.368168,150.500348
The Runaway Bay Sport & Leadership Excellence Cent,Sport and Recreation,http://www.rbssc.com.au,Cnr Sports Dr & Morala Ave,RUNAWAY BAY,4216,(07) 5500 9988,-27.913597,153.400999
The Sit Down Comedy Club,Theatre and Arts,http://www.standup.com.au,"Paddo Tavern, 186 Given Tce",PADDINGTON,4064,(07) 3369 4466,-33.883809,151.228394
The Sunlander,Transport,http://www.queenslandrail.com.au,Brisbane to Cairns,QUEENSLAND,4000,1800 872 467,-22.486941,144.43167
The Westlander,Transport,http://www.queenslandrail.com.au,Brisbane to Charleville,QUEENSLAND,4000,1800 872 467,-22.486941,144.43167
The Workshops Rail Museum,Tourist Attraction,http://www.theworkshops.qm.qld.gov.au,North St,IPSWICH,4305,(07) 3432 5100,-27.598646,152.757904
The World Theatre,Cinema,(blank),82-90 Mosman Street,CHARTERS TOWERS,4820,(07) 4787 4344,-20.084537,146.252872
The Zoo Health and Fitness,Health and Fitness,http://www.thezoohf.com.au,389 Woolcock Street,GARBUTT,4814,(07) 4725 2424,-19.267888,146.763545
Thompson Bus Service,Transport,(blank),267 Youngs Crossing Rd,JOYNER,4500,(07) 3882 1200,-27.266433,152.95301
Tilt Train,Transport,http://www.queenslandrail.com.au,Brisbane to Rockhampton & Brisbane to Cairns,QUEENSLAND,4000,1800 872 467,-22.486941,144.43167
Tin Can Bay Swimming Pool,Health and Fitness,http://gympieswimmingpools.com.au,1 Esplanade,TIN CAN BAY,4580,(07) 5486 4077,-25.902967,153.01316
Tobruk Memorial Pool,Health and Fitness,http://tobrukmemorialpool.com.au,370 Sheridan St,CAIRNS NORTH,4870,(07) 4051 2604,-16.902197,145.758262
Tobruk Pool,Health and Fitness,http://www.strandswims.com.au,The Strand,NORTH WARD,4810,(07) 4772 6550,-19.248932,146.813889
Toogoolawah Swimming Pool,Health and Fitness,(blank),Factory Rd,TOOGOOLAWAH,4313,(07) 5423 1187,-27.094126,152.37816
Toowoomba Salt Cave,Health and Fitness,http://www.toowoombasaltcave.com,Shop 9  192 James St,TOOWOOMBA,4350,(07) 4659 9269,-27.568897,151.953328
Toowoomba Show,Festivals and Shows,http://www.rasq.com.au,Glenvale Rd,TOOWOOMBA,4350,(07) 4634 7400,-27.556696,151.873042
Toowoomba Show,Festivals and Shows,http://www.toowoombashow.com.au/,Glenvale Rd,TOOWOOMBA,4350,(07) 4634 7400,-27.556696,151.873042
Toowoomba Sports Ground,Sport and Recreation,http://www.npsr.qld.gov.au,47 Arthur St,TOOWOOMBA,4350,(07) 4596 1009,-27.559945,151.964533
Toowoomba Transit,Transport,http://www.busqld.com.au,308 Taylor Street,TOOWOOMBA,4350,(07) 4633 1177,-27.552549,151.912414
Toowoomba Turf Club - horse racing,Sport and Recreation,http://www.toowoombaturfclub.com,Hursley Rd,TOOWOOMBA WEST,4350,(07) 4634 6066,-27.549205,151.879583
Towers Jockey Club Inc,Sport and Recreation,(blank),Racecourse,CHARTERS TOWERS,4820,(07) 4787 2480,-20.000001,146.23333
Townsville City Council,Council,http://www.townsville.qld.gov.au,280 Flinders St,TOWNSVILLE,4810,(07) 4727 9235,-19.259283,146.817769
Townsville Civic Theatre,Theatre and Arts,http://www.townsville.qld.gov.au,41 Boundary St,SOUTH TOWNSVILLE,4810,(07) 4727 9723,-19.272308,146.80929
Townsville Entertainment Centre - specified events,Theatre and Arts,http://www.tecc.net.au,2 Entertainment Dr,TOWNSVILLE,4810,(07) 4771 4000,-19.250761,146.827725
Townsville Fire,Sport and Recreation,http://www.wnbl.com.au,Murray Lyons Crescent,ANNANDALE,4812,(07) 4778 3400,-19.30716,146.801303
Townsville Heritage Centre,Tourist Attraction,http://nationaltrust.org.au,5 Castling St,TOWNSVILLE,4810,(07) 4772 5195,-19.270614,146.802297
Townsville Little Theatre,Theatre and Arts,http://www.townsvillelittletheatre.org.au,Castle Hill PCYC,BELGIAN WATERS,4810,(07) 4724 3112,-19.265177,146.783797
Townsville Sports Reserve Precinct,Sport and Recreation,http://www.npsr.qld.gov.au,14 Warburton St,NORTH WARD,4810,(07) 4799 7280,-19.249744,146.807106
Townsville Sunbus,Transport,http://www.sunbus.com.au,30 Bombala Street,GARBUTT,4814,(07) 4725 8482,-19.268984,146.756085
Trans North Bus & Coach,Transport,http://www.transnorthbus.com,99 Ernest Street,INNISFAIL,4860,(07) 4061 7944,-17.522101,146.028034
Translink (Bus/Train/Ferry Transport),Transport,http://www.translink.com.au,South East Queensland,SOUTH EAST QUEENSLAND,4000,13 12 30,-27.46598,153.02394
Tropic Wings Coach Tours,Tourist Attraction,http://www.tropicwings.com.au,278 Hartley Street,CAIRNS,4870,(07) 4041 9400,-16.942827,145.756082
Tully & District Show Society Inc,Festivals and Shows,(blank),Butler Street,TULLY,4854,(07) 4068 2033,-17.934122,145.927842
University of Sunshine Coast - Athletics Track,Sport and Recreation,http://www.usc.edu.au,Sippy Downs Dr (Campus),SIPPY DOWNS,4556,(07) 5430 1226,-26.722568,153.080904
University of Sunshine Coast - Gym & classes,Sport and Recreation,http://www.usc.edu.au,Sippy Downs Dr (Campus),SIPPY DOWNS,4556,(07) 5430 1226,-26.722568,153.080904
University of Sunshine Coast - Stadium,Sport and Recreation,http://www.usc.edu.au,Sippy Downs Dr (Campus),SIPPY DOWNS,4556,(07) 5430 1226,-26.722568,153.080904
University of Sunshine Coast - Tennis Courts,Sport and Recreation,http://www.usc.edu.au,Sippy Downs Dr (Campus),SIPPY DOWNS,4556,(07) 5430 1226,-26.722568,153.080904
University of the Sunshine Coast - Aquatic Centre,Sport and Recreation,http://www.usc.edu.au,Sippy Downs Dr (Campus),SIPPY DOWNS,4556,(07) 5430 1226,-26.722568,153.080904
University of the Third Age - Noosa,Learning & Personal Development,http://www.u3anoosa.org.au,64 Poinciana Ave,TEWANTIN,4565,(07) 5440 5500,-26.390879,153.035219
UQ Sport Aquatic Centre,Sport and Recreation,http://www.uqsport.com.au/venues/aquatic-centre/,The University of Queensland - Cnr Union Rd and Blair Dr,ST LUCIA,4067,(07) 3365 6047,-27.498998,153.004431
UQ Sport Athletic Centre,Sport and Recreation,http://www.uqsport.com.au/venues/athletics-centre/,The University of Queensland - Sir William MacGregor Dr,ST LUCIA,4067,(07) 3346 3070,-27.498866,153.019574
UQ Sport Fitness Centre,Sport and Recreation,http://www.uqsport.com.au/venues/fitness-centre/,The University of Queensland - Building 25  Union Rd,ST LUCIA,4067,(07) 3365 6612,-27.495709,153.015893
UQ Sport Gatton,Sport and Recreation,http://uqsport.com.au/sports,The University of Queensland - Building 8144,GATTON,4343,(07) 5460 1425,-27.563577,152.280012
UQ Sport Tennis Centre,Sport and Recreation,http://www.uqsport.com.au/venues/tennis-centre/,The University of Queensland - Blair Dr,ST LUCIA,4067,(07) 3365 6933,-27.494705,153.01498
Urban Climb,Sport and Recreation,http://www.urbanclimb.com.au,2/220 Montague Rd,WEST END,4101,(07) 3844 2544,-27.489746,152.999029
V8 Supercars,Sport and Recreation,http://www.v8supercars.com.au,McIntosh Island,SURFERS PARADISE,4217,13 28 49,-28.001662,153.422932
V8 Supercars (Statewide)-Townsville 400 9-11 July,Sport and Recreation,http://www.v8supercars.com.au,Reid Park,TOWNSVILLE,4810,13 28 49,-19.259721,146.81694
V8 Supercars Ipswich 300,Sport and Recreation,http://www.v8supercars.com.au,"Champions Way, Queensland Raceway",IPSWICH,4305,13 28 49,-27.622856,152.760331
Veolia Transport,Transport,http://www.transdevbrisbane.com.au,10 Smith St,CAPALABA,4157,(07) 3248 6100,-27.527779,153.19706
Victoria Park Golf Complex - Putt Putt,Sport and Recreation,http://www.victoriaparkgolfcomplex.com,223 Herston Rd,HERSTON,4006,(07) 3252 9891,-27.449254,153.019629
Victoria Park Golf Complex - Range Balls,Sport and Recreation,http://www.victoriaparkgolfcomplex.com,223 Herston Rd,HERSTON,2006,(07) 3252 9891,-27.449254,153.019629
Waddle & Saddle,Festivals and Shows,(blank),Willow St,KILLARNEY,4373,(07) 4664 1218,-28.34357,152.291611
Walkabout Creek Wildlife Centre,Tourist Attraction,http://www.npsr.qld.gov.au,60 Mt Nebo Rd,THE GAP,4061,1300 130 372,-27.433604,152.924824
Walter Reid Cultural Centre,Theatre and Arts,http://www.rockhamptonregion.qld.gov.au,Cnr Derby/East Sts,ROCKHAMPTON,4700,(07) 4936 8569,-23.381711,150.515964
Wandoan Swimming Pool,Sport and Recreation,http://www.wdrc.qld.gov.au,Royd Street,WANDOAN,4419,(07) 4627 4354,-26.125217,149.965786
Warner Bros. Movie World,Tourist Attraction,http://www.themeparks.com.au,Pacific Hwy,OXENFORD,4210,13 33 86,-27.885442,153.313301
Warwick Indoor Rec. and Aquatic Centre,Health and Fitness,http://www.southerndowns.qld.gov.au,29 Palmerin Street,WARWICK,4370,(07) 4661 7955,-28.211414,152.032825
Warwick Personal Training and Pilates Studio,Health and Fitness,(blank),77 Fitzroy Street,WARWICK,4370,(07) 4667 1999,-28.213959,152.034092
Warwick Rodeo,Festivals and Shows,http://warwickshowandrodeo.com.au/,"Warwick Showgrounds, Kingsford St",WARWICK,4370,(07) 4661 9060,-31.839663,115.80869
Warwick Show,Festivals and Shows,http://warwickshowandrodeo.com.au/,"Warwick Showgrounds, Kingsford St",WARWICK,4370,(07) 4661 9060,-31.839663,115.80869
Waterworx Aquatic Lifestyle Centre,Health and Fitness,http://www.waterworxspringfield.com.au/,22a Commercial Drive,SPRINGFIELD,4300,(07) 3818 9679,-27.655558,152.919393
Western Downs Regional Council ,Council,http://www.wdrc.qld.gov.au,Cnr Marble and Drayton Streets,DALBY,4405,(07) 4679 4405,-27.183938,151.264584
Westside Bus Company,Transport,http://www.busqld.com.au,River Rd,REDBANK,4301,(07) 3288 1333,-27.598265,152.869234
Wet'n'Wild Water World,Tourist Attraction,http://www.themeparks.com.au,Entertainment Rd,OXENFORD,4210,13 33 86,-27.902936,153.315083
White Ridge Farm,Tourist Attraction,http://www.whiteridgefarm.com.au,130 Hamilton Rd,ELIMBAH,4516,0417 774 559,-27.03367,152.949065
WhiteWater World,Tourist Attraction,http://www.dreamworld.com.au,1 Dreamworld Parkway,COOMERA,4209,(07) 5588 1111,-27.871445,153.314123
Whitsunday Transit,Transport,http://www.whitsundaytransit.com.au,7 Orchid Road,CANNONVALE,4802,(07) 4946 1800,-20.301868,148.669474
Wide Bay Transit,Transport,http://www.widebaytransit.com.au,Cnr Tooley/Normanby Streets,MARYBOROUGH,4650,(07) 4121 3719,-25.533129,152.69482
Wide Bay Transit,Transport,http://www.widebaytransit.com.au,188 Lower Mountain Rd,PIALBA,4655,(07) 4128 6411,-25.293923,152.749456
Willowbank Raceway,Sport and Recreation,http://www.willowbankraceway.com.au,Champions Way,WILLOWBANK,4307,(07) 5461 5461,-27.691244,152.659021
Willows Squash and Fitness Centre,Health and Fitness,http://www.willowshealth.com.au,55-57 Kitchener Street,TOOWOOMBA,4350,(07) 4639 2233,-27.573239,151.965506
Winton Show Society,Festivals and Shows,(blank),Winton Showgrounds,WINTON,4735,0427 459 662,-22.383109,143.039965
Wolston House,Tourist Attraction,http://nationaltrust.org.au,223 Grindle Rd,WACOL,4076,(07) 3088 8133,-27.572102,152.902572
Wondai Show,Festivals and Shows,(blank),Baynes St,WONDAI,4606,(07) 4168 5684,-26.32187,151.872668
Woodford Swimming Pool,Health and Fitness,http://www.moretonbay.qld.gov.au/woodford-pool/,Peterson Rd,WOODFORD,4514,(07) 5496 1918,-26.962812,152.784684
Woree Aquatic Centre,Health and Fitness,(blank),1 Pool Cl,WOREE,4868,(07) 4054 6964,-16.959509,145.746219
World Gym Ashmore,Health and Fitness,http://www.worldgymaustralia.com,542 Olsen Ave,ASHMORE,4214,(07) 5564 6686,-27.973122,153.376866
World Gym Southside,Health and Fitness,http://www.worldgymsouthside.com.au/,U 7-10  10 Old Chatswood Rd,DAISY HILL,4127,(07) 3299 4090,-27.634448,153.135885
World War II Memorial Pool,Health and Fitness,http://www.rockhamptonregion.qld.gov.au,Lion Creek Rd,ROCKHAMPTON,4700,(07) 4922 1981,-23.368815,150.478072
Y Bargara Gym,Health and Fitness,http://www.bundaberg.ymca.org.au,Level 1 Bargara Central,BUNDABERG,4670,(07) 4132 8211,-24.933334,152.333333
Yeppoon Annual Show,Festivals and Shows,http://www.yeppoonshow.com,Park St,YEPPOON,4703,(07) 4939 3953,-23.131519,150.738499
Yeronga Swimming Pool,Health and Fitness,http://www.yerongaswimming.com,School Rd,YERONGA,4104,(07) 3848 8575,-27.520591,153.015701
Young's Bus Service,Transport,http://www.youngsbusservice.com.au,274 George Street,ALLENSTOWN,4700,(07) 4939 3131,-23.38862,150.510874
Zara Clark Museum,Tourist Attraction,http://nationaltrust.org.au,36 Mosman St,CHARTERS TOWERS,4820,(07) 3223 6666,-20.073809,146.257531
Zumba & Beginners Line Dancing with Linda,Health and Fitness,http://lindawhitbourn.zumba.com/classes,See Website for details,VARIOUS LOCATIONS,4000,0428 419 157,-27.46598,153.02394
